Id,CreatedDate,CreatedById,LastModifiedById,LastModifiedDate,IsDeleted,SystemModstamp,LoginTime,CountryIso,Country,Latitude,Longitude,City,PostalCode,Subdivision
04FdM000004Ya8rUAC,2024-07-10T06:24:34Z,005dM000004WE3FQAW,005dM000004WE3FQAW,2024-07-10T06:24:34Z,False,2024-07-10T06:24:34Z,2024-07-10T06:24:34Z,US,United States,39.0469000000000008299139153677970170975,-77.4903000000000048430592869408428668976,Ashburn,20149,Virginia
04FdM000004YhWcUAK,2024-07-10T06:07:33Z,005dM000004WE3FQAW,005dM000004WE3FQAW,2024-07-10T06:07:33Z,False,2024-07-10T06:07:33Z,2024-07-10T06:07:33Z,US,United States,39.0469000000000008299139153677970170975,-77.4903000000000048430592869408428668976,Ashburn,20149,Virginia
04FdM000004Yo5RUAS,2024-07-10T07:25:33Z,005dM000004WE3FQAW,005dM000004WE3FQAW,2024-07-10T07:25:33Z,False,2024-07-10T07:25:33Z,2024-07-10T07:25:33Z,US,United States,39.0469000000000008299139153677970170975,-77.4903000000000048430592869408428668976,Ashburn,20149,Virginia
04FdM000004YpozUAC,2024-07-10T05:55:24Z,005dM000004WE3FQAW,005dM000004WE3FQAW,2024-07-10T05:55:24Z,False,2024-07-10T05:55:24Z,2024-07-10T05:55:24Z,US,United States,39.0469000000000008299139153677970170975,-77.4903000000000048430592869408428668976,Ashburn,20149,Virginia
04FdM000004YsBuUAK,2024-07-10T06:23:05Z,005dM000004WE3FQAW,005dM000004WE3FQAW,2024-07-10T06:23:05Z,False,2024-07-10T06:23:05Z,2024-07-10T06:23:05Z,US,United States,39.0469000000000008299139153677970170975,-77.4903000000000048430592869408428668976,Ashburn,20149,Virginia
04FdM000004YwiGUAS,2024-07-10T09:02:15Z,005dM000004WE3FQAW,005dM000004WE3FQAW,2024-07-10T09:02:15Z,False,2024-07-10T09:02:15Z,2024-07-10T09:02:15Z,US,United States,39.0469000000000008299139153677970170975,-77.4903000000000048430592869408428668976,Ashburn,20149,Virginia
04FdM000004Z74ZUAS,2024-07-10T07:26:48Z,005dM000004WE3FQAW,005dM000004WE3FQAW,2024-07-10T07:26:48Z,False,2024-07-10T07:26:48Z,2024-07-10T07:26:48Z,US,United States,39.0469000000000008299139153677970170975,-77.4903000000000048430592869408428668976,Ashburn,20149,Virginia
04FdM000004ZfgLUAS,2024-07-10T10:30:49Z,005dM000004WE3FQAW,005dM000004WE3FQAW,2024-07-10T10:30:49Z,False,2024-07-10T10:30:49Z,2024-07-10T10:30:49Z,US,United States,39.0469000000000008299139153677970170975,-77.4903000000000048430592869408428668976,Ashburn,20149,Virginia
04FdM000004Zkc2UAC,2024-07-10T09:42:01Z,005dM000004WE3FQAW,005dM000004WE3FQAW,2024-07-10T09:42:01Z,False,2024-07-10T09:42:01Z,2024-07-10T09:42:01Z,US,United States,39.0469000000000008299139153677970170975,-77.4903000000000048430592869408428668976,Ashburn,20149,Virginia
04FdM000004ZpiXUAS,2024-07-10T10:35:19Z,005dM000004WE3FQAW,005dM000004WE3FQAW,2024-07-10T10:35:19Z,False,2024-07-10T10:35:19Z,2024-07-10T10:35:19Z,US,United States,39.0469000000000008299139153677970170975,-77.4903000000000048430592869408428668976,Ashburn,20149,Virginia
04FdM000004ZsZjUAK,2024-07-10T10:17:17Z,005dM000004WE3FQAW,005dM000004WE3FQAW,2024-07-10T10:17:17Z,False,2024-07-10T10:17:17Z,2024-07-10T10:17:17Z,US,United States,39.0469000000000008299139153677970170975,-77.4903000000000048430592869408428668976,Ashburn,20149,Virginia
04FdM000004ZsxkUAC,2024-07-10T10:08:55Z,005dM000004WE3FQAW,005dM000004WE3FQAW,2024-07-10T10:08:55Z,False,2024-07-10T10:08:55Z,2024-07-10T10:08:55Z,US,United States,39.0469000000000008299139153677970170975,-77.4903000000000048430592869408428668976,Ashburn,20149,Virginia
04FdM000004dJHLUA2,2024-07-11T04:58:37Z,005dM000004WE3FQAW,005dM000004WE3FQAW,2024-07-11T04:58:37Z,False,2024-07-11T04:58:37Z,2024-07-11T04:58:37Z,US,United States,39.0469000000000008299139153677970170975,-77.4903000000000048430592869408428668976,Ashburn,20149,Virginia
04FdM000004dZyiUAE,2024-07-11T05:59:52Z,005dM000004WE3FQAW,005dM000004WE3FQAW,2024-07-11T05:59:52Z,False,2024-07-11T05:59:52Z,2024-07-11T05:59:52Z,US,United States,39.0469000000000008299139153677970170975,-77.4903000000000048430592869408428668976,Ashburn,20149,Virginia
04FdM000004dbH5UAI,2024-07-11T05:12:15Z,005dM000004WE3FQAW,005dM000004WE3FQAW,2024-07-11T05:12:15Z,False,2024-07-11T05:12:15Z,2024-07-11T05:12:15Z,US,United States,39.0469000000000008299139153677970170975,-77.4903000000000048430592869408428668976,Ashburn,20149,Virginia
04FdM000004dxMzUAI,2024-07-11T08:00:27Z,005dM000004WE3FQAW,005dM000004WE3FQAW,2024-07-11T08:00:27Z,False,2024-07-11T08:00:27Z,2024-07-11T08:00:27Z,US,United States,39.0469000000000008299139153677970170975,-77.4903000000000048430592869408428668976,Ashburn,20149,Virginia
04FdM000004eIABUA2,2024-07-11T07:58:17Z,005dM000004WE3FQAW,005dM000004WE3FQAW,2024-07-11T07:58:17Z,False,2024-07-11T07:58:17Z,2024-07-11T07:58:17Z,US,United States,39.0469000000000008299139153677970170975,-77.4903000000000048430592869408428668976,Ashburn,20149,Virginia
04FdM000004eKxIUAU,2024-07-11T07:47:07Z,005dM000004WE3FQAW,005dM000004WE3FQAW,2024-07-11T07:47:07Z,False,2024-07-11T07:47:07Z,2024-07-11T07:47:07Z,US,United States,39.0469000000000008299139153677970170975,-77.4903000000000048430592869408428668976,Ashburn,20149,Virginia
04FdM000004eXHsUAM,2024-07-11T09:10:41Z,005dM000004WE3FQAW,005dM000004WE3FQAW,2024-07-11T09:10:41Z,False,2024-07-11T09:10:41Z,2024-07-11T09:10:41Z,US,United States,39.0469000000000008299139153677970170975,-77.4903000000000048430592869408428668976,Ashburn,20149,Virginia
04FdM000004ehFVUAY,2024-07-11T09:08:44Z,005dM000004WE3FQAW,005dM000004WE3FQAW,2024-07-11T09:08:44Z,False,2024-07-11T09:08:44Z,2024-07-11T09:08:44Z,US,United States,39.0469000000000008299139153677970170975,-77.4903000000000048430592869408428668976,Ashburn,20149,Virginia
04FdM000004ezs9UAA,2024-07-11T10:02:02Z,005dM000004WE3FQAW,005dM000004WE3FQAW,2024-07-11T10:02:02Z,False,2024-07-11T10:02:02Z,2024-07-11T10:02:02Z,US,United States,39.0469000000000008299139153677970170975,-77.4903000000000048430592869408428668976,Ashburn,20149,Virginia
04FdM000004f3WpUAI,2024-07-11T10:15:39Z,005dM000004WE3FQAW,005dM000004WE3FQAW,2024-07-11T10:15:39Z,False,2024-07-11T10:15:39Z,2024-07-11T10:15:39Z,US,United States,39.0469000000000008299139153677970170975,-77.4903000000000048430592869408428668976,Ashburn,20149,Virginia
04FdM000004jsXDUAY,2024-07-12T05:33:08Z,005dM000004WE3FQAW,005dM000004WE3FQAW,2024-07-12T05:33:08Z,False,2024-07-12T05:33:08Z,2024-07-12T05:33:08Z,US,United States,39.0469000000000008299139153677970170975,-77.4903000000000048430592869408428668976,Ashburn,20149,Virginia
04FdM000004jwZ1UAI,2024-07-12T05:17:14Z,005dM000004WE3FQAW,005dM000004WE3FQAW,2024-07-12T05:17:14Z,False,2024-07-12T05:17:14Z,2024-07-12T05:17:14Z,US,United States,39.0469000000000008299139153677970170975,-77.4903000000000048430592869408428668976,Ashburn,20149,Virginia
04FdM000004ky7SUAQ,2024-07-12T11:19:41Z,005dM000004WE3FQAW,005dM000004WE3FQAW,2024-07-12T11:19:41Z,False,2024-07-12T11:19:41Z,2024-07-12T11:19:41Z,US,United States,39.0469000000000008299139153677970170975,-77.4903000000000048430592869408428668976,Ashburn,20149,Virginia
04FdM000004lTrwUAE,2024-07-12T10:39:33Z,005dM000004WE3FQAW,005dM000004WE3FQAW,2024-07-12T10:39:33Z,False,2024-07-12T10:39:33Z,2024-07-12T10:39:33Z,US,United States,39.0469000000000008299139153677970170975,-77.4903000000000048430592869408428668976,Ashburn,20149,Virginia
04FdM000004vQiRUAU,2024-07-15T07:00:02Z,005dM000004WE3FQAW,005dM000004WE3FQAW,2024-07-15T07:00:02Z,False,2024-07-15T07:00:02Z,2024-07-15T07:00:02Z,US,United States,39.0469000000000008299139153677970170975,-77.4903000000000048430592869408428668976,Ashburn,20149,Virginia
04FdM000004vaxRUAQ,2024-07-15T06:10:25Z,005dM000004WE3FQAW,005dM000004WE3FQAW,2024-07-15T06:10:25Z,False,2024-07-15T06:10:25Z,2024-07-15T06:10:25Z,US,United States,39.0469000000000008299139153677970170975,-77.4903000000000048430592869408428668976,Ashburn,20149,Virginia
04FdM000004vc71UAA,2024-07-15T05:09:53Z,005dM000004WE3FQAW,005dM000004WE3FQAW,2024-07-15T05:09:53Z,False,2024-07-15T05:09:53Z,2024-07-15T05:09:53Z,US,United States,39.0469000000000008299139153677970170975,-77.4903000000000048430592869408428668976,Ashburn,20149,Virginia
04FdM000004vuprUAA,2024-07-15T06:02:51Z,005dM000004WE3FQAW,005dM000004WE3FQAW,2024-07-15T06:02:51Z,False,2024-07-15T06:02:51Z,2024-07-15T06:02:51Z,US,United States,39.0469000000000008299139153677970170975,-77.4903000000000048430592869408428668976,Ashburn,20149,Virginia
04FdM000004w2IuUAI,2024-07-15T06:44:13Z,005dM000004WE3FQAW,005dM000004WE3FQAW,2024-07-15T06:44:13Z,False,2024-07-15T06:44:13Z,2024-07-15T06:44:13Z,US,United States,39.0469000000000008299139153677970170975,-77.4903000000000048430592869408428668976,Ashburn,20149,Virginia
04FdM000004w5t6UAA,2024-07-15T06:14:10Z,005dM000004WE3FQAW,005dM000004WE3FQAW,2024-07-15T06:14:10Z,False,2024-07-15T06:14:10Z,2024-07-15T06:14:10Z,US,United States,39.0469000000000008299139153677970170975,-77.4903000000000048430592869408428668976,Ashburn,20149,Virginia
04FdM000004w6ZNUAY,2024-07-15T06:39:59Z,005dM000004WE3FQAW,005dM000004WE3FQAW,2024-07-15T06:39:59Z,False,2024-07-15T06:39:59Z,2024-07-15T06:39:59Z,US,United States,39.0469000000000008299139153677970170975,-77.4903000000000048430592869408428668976,Ashburn,20149,Virginia
04FdM000004w7qLUAQ,2024-07-15T07:03:55Z,005dM000004WE3FQAW,005dM000004WE3FQAW,2024-07-15T07:03:55Z,False,2024-07-15T07:03:55Z,2024-07-15T07:03:55Z,US,United States,39.0469000000000008299139153677970170975,-77.4903000000000048430592869408428668976,Ashburn,20149,Virginia
04FdM000004wPDjUAM,2024-07-15T07:15:19Z,005dM000004WE3FQAW,005dM000004WE3FQAW,2024-07-15T07:15:19Z,False,2024-07-15T07:15:19Z,2024-07-15T07:15:19Z,US,United States,39.0469000000000008299139153677970170975,-77.4903000000000048430592869408428668976,Ashburn,20149,Virginia
04FdM000004wQMRUA2,2024-07-15T07:01:48Z,005dM000004WE3FQAW,005dM000004WE3FQAW,2024-07-15T07:01:48Z,False,2024-07-15T07:01:48Z,2024-07-15T07:01:48Z,US,United States,39.0469000000000008299139153677970170975,-77.4903000000000048430592869408428668976,Ashburn,20149,Virginia
04FdM000004wUHzUAM,2024-07-15T07:17:32Z,005dM000004WE3FQAW,005dM000004WE3FQAW,2024-07-15T07:17:32Z,False,2024-07-15T07:17:32Z,2024-07-15T07:17:32Z,US,United States,39.0469000000000008299139153677970170975,-77.4903000000000048430592869408428668976,Ashburn,20149,Virginia
04FdM0000052tZEUAY,2024-07-16T10:11:56Z,005dM000004WE3FQAW,005dM000004WE3FQAW,2024-07-16T10:11:56Z,False,2024-07-16T10:11:56Z,2024-07-16T10:11:56Z,US,United States,39.0469000000000008299139153677970170975,-77.4903000000000048430592869408428668976,Ashburn,20149,Virginia
04FdM00000536EXUAY,2024-07-16T12:18:28Z,005dM000004WE3FQAW,005dM000004WE3FQAW,2024-07-16T12:18:28Z,False,2024-07-16T12:18:28Z,2024-07-16T12:18:28Z,US,United States,39.0469000000000008299139153677970170975,-77.4903000000000048430592869408428668976,Ashburn,20149,Virginia
04FdM0000056jFyUAI,2024-07-17T05:44:35Z,005dM000004WE3FQAW,005dM000004WE3FQAW,2024-07-17T05:44:35Z,False,2024-07-17T05:44:35Z,2024-07-17T05:44:35Z,US,United States,39.0469000000000008299139153677970170975,-77.4903000000000048430592869408428668976,Ashburn,20149,Virginia
04FdM0000056sPoUAI,2024-07-17T05:03:23Z,005dM000004WE3FQAW,005dM000004WE3FQAW,2024-07-17T05:03:23Z,False,2024-07-17T05:03:23Z,2024-07-17T05:03:23Z,US,United States,39.0469000000000008299139153677970170975,-77.4903000000000048430592869408428668976,Ashburn,20149,Virginia
04FdM0000057BrvUAE,2024-07-17T05:38:03Z,005dM000004WE3FQAW,005dM000004WE3FQAW,2024-07-17T05:38:03Z,False,2024-07-17T05:38:03Z,2024-07-17T05:38:03Z,US,United States,39.0469000000000008299139153677970170975,-77.4903000000000048430592869408428668976,Ashburn,20149,Virginia
04FdM0000057DVWUA2,2024-07-17T05:37:46Z,005dM000004WE3FQAW,005dM000004WE3FQAW,2024-07-17T05:37:46Z,False,2024-07-17T05:37:46Z,2024-07-17T05:37:46Z,US,United States,39.0469000000000008299139153677970170975,-77.4903000000000048430592869408428668976,Ashburn,20149,Virginia
04FdM0000057vpGUAQ,2024-07-17T10:37:58Z,005dM000004WE3FQAW,005dM000004WE3FQAW,2024-07-17T10:37:58Z,False,2024-07-17T10:37:58Z,2024-07-17T10:37:58Z,US,United States,39.0469000000000008299139153677970170975,-77.4903000000000048430592869408428668976,Ashburn,20149,Virginia
04FdM0000057xofUAA,2024-07-17T10:10:43Z,005dM000004WE3FQAW,005dM000004WE3FQAW,2024-07-17T10:10:43Z,False,2024-07-17T10:10:43Z,2024-07-17T10:10:43Z,US,United States,39.0469000000000008299139153677970170975,-77.4903000000000048430592869408428668976,Ashburn,20149,Virginia
04FdM00000581nWUAQ,2024-07-17T10:08:54Z,005dM000004WE3FQAW,005dM000004WE3FQAW,2024-07-17T10:08:54Z,False,2024-07-17T10:08:54Z,2024-07-17T10:08:54Z,US,United States,39.0469000000000008299139153677970170975,-77.4903000000000048430592869408428668976,Ashburn,20149,Virginia
04FdM00000587gHUAQ,2024-07-17T10:03:40Z,005dM000004WE3FQAW,005dM000004WE3FQAW,2024-07-17T10:03:40Z,False,2024-07-17T10:03:40Z,2024-07-17T10:03:40Z,US,United States,39.0469000000000008299139153677970170975,-77.4903000000000048430592869408428668976,Ashburn,20149,Virginia
04FdM000005BqybUAC,2024-07-18T04:35:59Z,005dM000004WE3FQAW,005dM000004WE3FQAW,2024-07-18T04:35:59Z,False,2024-07-18T04:35:59Z,2024-07-18T04:35:59Z,US,United States,39.0469000000000008299139153677970170975,-77.4903000000000048430592869408428668976,Ashburn,20149,Virginia
04FdM000005C0MNUA0,2024-07-18T04:31:05Z,005dM000004WE3FQAW,005dM000004WE3FQAW,2024-07-18T04:31:05Z,False,2024-07-18T04:31:05Z,2024-07-18T04:31:05Z,US,United States,39.0469000000000008299139153677970170975,-77.4903000000000048430592869408428668976,Ashburn,20149,Virginia
04FdM000005CFTiUAO,2024-07-18T06:09:58Z,005dM000004WE3FQAW,005dM000004WE3FQAW,2024-07-18T06:09:58Z,False,2024-07-18T06:09:58Z,2024-07-18T06:09:58Z,US,United States,39.0469000000000008299139153677970170975,-77.4903000000000048430592869408428668976,Ashburn,20149,Virginia
04FdM000005CK7nUAG,2024-07-18T05:57:53Z,005dM000004WE3FQAW,005dM000004WE3FQAW,2024-07-18T05:57:53Z,False,2024-07-18T05:57:53Z,2024-07-18T05:57:53Z,US,United States,39.0469000000000008299139153677970170975,-77.4903000000000048430592869408428668976,Ashburn,20149,Virginia
04FdM000005DYrgUAG,2024-07-18T10:13:35Z,005dM000004WE3FQAW,005dM000004WE3FQAW,2024-07-18T10:13:35Z,False,2024-07-18T10:13:35Z,2024-07-18T10:13:35Z,US,United States,39.0469000000000008299139153677970170975,-77.4903000000000048430592869408428668976,Ashburn,20149,Virginia
04FdM000005Do5bUAC,2024-07-18T11:43:35Z,005dM000004WE3FQAW,005dM000004WE3FQAW,2024-07-18T11:43:35Z,False,2024-07-18T11:43:35Z,2024-07-18T11:43:35Z,US,United States,39.0469000000000008299139153677970170975,-77.4903000000000048430592869408428668976,Ashburn,20149,Virginia
04FdM000005DtgkUAC,2024-07-18T12:46:11Z,005dM000004WE3FQAW,005dM000004WE3FQAW,2024-07-18T12:46:11Z,False,2024-07-18T12:46:11Z,2024-07-18T12:46:11Z,US,United States,39.0469000000000008299139153677970170975,-77.4903000000000048430592869408428668976,Ashburn,20149,Virginia
04FdM000005DwIBUA0,2024-07-18T12:04:51Z,005dM000004WE3FQAW,005dM000004WE3FQAW,2024-07-18T12:04:51Z,False,2024-07-18T12:04:51Z,2024-07-18T12:04:51Z,US,United States,39.0469000000000008299139153677970170975,-77.4903000000000048430592869408428668976,Ashburn,20149,Virginia
04FdM000005HiAOUA0,2024-07-19T09:31:45Z,005dM000004WE3FQAW,005dM000004WE3FQAW,2024-07-19T09:31:45Z,False,2024-07-19T09:31:45Z,2024-07-19T09:31:45Z,US,United States,39.0469000000000008299139153677970170975,-77.4903000000000048430592869408428668976,Ashburn,20149,Virginia
04FdM000005HqNnUAK,2024-07-19T09:18:25Z,005dM000004WE3FQAW,005dM000004WE3FQAW,2024-07-19T09:18:25Z,False,2024-07-19T09:18:25Z,2024-07-19T09:18:25Z,US,United States,39.0469000000000008299139153677970170975,-77.4903000000000048430592869408428668976,Ashburn,20149,Virginia
04FdM000005Hv0vUAC,2024-07-19T09:45:17Z,005dM000004WE3FQAW,005dM000004WE3FQAW,2024-07-19T09:45:17Z,False,2024-07-19T09:45:17Z,2024-07-19T09:45:17Z,US,United States,39.0469000000000008299139153677970170975,-77.4903000000000048430592869408428668976,Ashburn,20149,Virginia
04FdM000005POzfUAG,2024-07-22T06:06:24Z,005dM000004WE3FQAW,005dM000004WE3FQAW,2024-07-22T06:06:24Z,False,2024-07-22T06:06:24Z,2024-07-22T06:06:24Z,US,United States,39.0469000000000008299139153677970170975,-77.4903000000000048430592869408428668976,Ashburn,20149,Virginia
04FdM000005QMMDUA4,2024-07-22T07:01:48Z,005dM000004WE3FQAW,005dM000004WE3FQAW,2024-07-22T07:01:48Z,False,2024-07-22T07:01:48Z,2024-07-22T07:01:48Z,US,United States,39.0469000000000008299139153677970170975,-77.4903000000000048430592869408428668976,Ashburn,20149,Virginia
04FdM000005QjqCUAS,2024-07-22T05:57:14Z,005dM000004WE3FQAW,005dM000004WE3FQAW,2024-07-22T05:57:14Z,False,2024-07-22T05:57:14Z,2024-07-22T05:57:14Z,US,United States,39.0469000000000008299139153677970170975,-77.4903000000000048430592869408428668976,Ashburn,20149,Virginia
04FdM000005QlYdUAK,2024-07-22T06:09:46Z,005dM000004WE3FQAW,005dM000004WE3FQAW,2024-07-22T06:09:46Z,False,2024-07-22T06:09:46Z,2024-07-22T06:09:46Z,US,United States,39.0469000000000008299139153677970170975,-77.4903000000000048430592869408428668976,Ashburn,20149,Virginia
04FdM000005Qo50UAC,2024-07-22T06:11:44Z,005dM000004WE3FQAW,005dM000004WE3FQAW,2024-07-22T06:11:44Z,False,2024-07-22T06:11:44Z,2024-07-22T06:11:44Z,US,United States,39.0469000000000008299139153677970170975,-77.4903000000000048430592869408428668976,Ashburn,20149,Virginia
04FdM000005Qr4GUAS,2024-07-22T06:09:02Z,005dM000004WE3FQAW,005dM000004WE3FQAW,2024-07-22T06:09:02Z,False,2024-07-22T06:09:02Z,2024-07-22T06:09:02Z,US,United States,39.0469000000000008299139153677970170975,-77.4903000000000048430592869408428668976,Ashburn,20149,Virginia
04FdM000005QrzAUAS,2024-07-22T06:58:21Z,005dM000004WE3FQAW,005dM000004WE3FQAW,2024-07-22T06:58:21Z,False,2024-07-22T06:58:21Z,2024-07-22T06:58:21Z,US,United States,39.0469000000000008299139153677970170975,-77.4903000000000048430592869408428668976,Ashburn,20149,Virginia
04FdM000005RBuBUAW,2024-07-22T07:39:26Z,005dM000004WE3FQAW,005dM000004WE3FQAW,2024-07-22T07:39:26Z,False,2024-07-22T07:39:26Z,2024-07-22T07:39:26Z,US,United States,39.0469000000000008299139153677970170975,-77.4903000000000048430592869408428668976,Ashburn,20149,Virginia
04FdM000005RJifUAG,2024-07-22T09:33:26Z,005dM000004WE3FQAW,005dM000004WE3FQAW,2024-07-22T09:33:26Z,False,2024-07-22T09:33:26Z,2024-07-22T09:33:26Z,US,United States,39.0469000000000008299139153677970170975,-77.4903000000000048430592869408428668976,Ashburn,20149,Virginia
04FdM000005RY38UAG,2024-07-22T09:30:45Z,005dM000004WE3FQAW,005dM000004WE3FQAW,2024-07-22T09:30:45Z,False,2024-07-22T09:30:45Z,2024-07-22T09:30:45Z,US,United States,39.0469000000000008299139153677970170975,-77.4903000000000048430592869408428668976,Ashburn,20149,Virginia
04FdM000005S64SUAS,2024-07-22T11:38:12Z,005dM000004WE3FQAW,005dM000004WE3FQAW,2024-07-22T11:38:12Z,False,2024-07-22T11:38:12Z,2024-07-22T11:38:12Z,US,United States,39.0469000000000008299139153677970170975,-77.4903000000000048430592869408428668976,Ashburn,20149,Virginia
04FdM000005VD6kUAG,2024-07-23T05:49:36Z,005dM000004WE3FQAW,005dM000004WE3FQAW,2024-07-23T05:49:36Z,False,2024-07-23T05:49:36Z,2024-07-23T05:49:36Z,US,United States,39.0469000000000008299139153677970170975,-77.4903000000000048430592869408428668976,Ashburn,20149,Virginia
04FdM000005VK7fUAG,2024-07-23T05:40:31Z,005dM000004WE3FQAW,005dM000004WE3FQAW,2024-07-23T05:40:31Z,False,2024-07-23T05:40:31Z,2024-07-23T05:40:31Z,US,United States,39.0469000000000008299139153677970170975,-77.4903000000000048430592869408428668976,Ashburn,20149,Virginia
04FdM000005VKu3UAG,2024-07-23T05:44:30Z,005dM000004WE3FQAW,005dM000004WE3FQAW,2024-07-23T05:44:30Z,False,2024-07-23T05:44:30Z,2024-07-23T05:44:30Z,US,United States,39.0469000000000008299139153677970170975,-77.4903000000000048430592869408428668976,Ashburn,20149,Virginia
04FdM000005VLENUA4,2024-07-23T05:55:57Z,005dM000004WE3FQAW,005dM000004WE3FQAW,2024-07-23T05:55:57Z,False,2024-07-23T05:55:57Z,2024-07-23T05:55:57Z,US,United States,39.0469000000000008299139153677970170975,-77.4903000000000048430592869408428668976,Ashburn,20149,Virginia
04FdM000005VNfYUAW,2024-07-23T07:08:31Z,005dM000004WE3FQAW,005dM000004WE3FQAW,2024-07-23T07:08:31Z,False,2024-07-23T07:08:31Z,2024-07-23T07:08:31Z,US,United States,39.0469000000000008299139153677970170975,-77.4903000000000048430592869408428668976,Ashburn,20149,Virginia
04FdM000005VP4FUAW,2024-07-23T06:17:22Z,005dM000004WE3FQAW,005dM000004WE3FQAW,2024-07-23T06:17:22Z,False,2024-07-23T06:17:22Z,2024-07-23T06:17:22Z,US,United States,39.0469000000000008299139153677970170975,-77.4903000000000048430592869408428668976,Ashburn,20149,Virginia
04FdM000005VT8dUAG,2024-07-23T07:25:05Z,005dM000004WE3FQAW,005dM000004WE3FQAW,2024-07-23T07:25:05Z,False,2024-07-23T07:25:05Z,2024-07-23T07:25:05Z,US,United States,39.0469000000000008299139153677970170975,-77.4903000000000048430592869408428668976,Ashburn,20149,Virginia
04FdM000005VU79UAG,2024-07-23T06:42:10Z,005dM000004WE3FQAW,005dM000004WE3FQAW,2024-07-23T06:42:10Z,False,2024-07-23T06:42:10Z,2024-07-23T06:42:10Z,US,United States,39.0469000000000008299139153677970170975,-77.4903000000000048430592869408428668976,Ashburn,20149,Virginia
04FdM000005Vqc6UAC,2024-07-23T08:46:00Z,005dM000004WE3FQAW,005dM000004WE3FQAW,2024-07-23T08:46:00Z,False,2024-07-23T08:46:00Z,2024-07-23T08:46:00Z,US,United States,39.0469000000000008299139153677970170975,-77.4903000000000048430592869408428668976,Ashburn,20149,Virginia
04FdM000005VzCcUAK,2024-07-23T09:01:37Z,005dM000004WE3FQAW,005dM000004WE3FQAW,2024-07-23T09:01:37Z,False,2024-07-23T09:01:37Z,2024-07-23T09:01:37Z,US,United States,39.0469000000000008299139153677970170975,-77.4903000000000048430592869408428668976,Ashburn,20149,Virginia
04FdM000005W49zUAC,2024-07-23T09:17:02Z,005dM000004WE3FQAW,005dM000004WE3FQAW,2024-07-23T09:17:02Z,False,2024-07-23T09:17:02Z,2024-07-23T09:17:02Z,US,United States,39.0469000000000008299139153677970170975,-77.4903000000000048430592869408428668976,Ashburn,20149,Virginia
04FdM000005WhLnUAK,2024-07-23T12:26:57Z,005dM000004WE3FQAW,005dM000004WE3FQAW,2024-07-23T12:26:57Z,False,2024-07-23T12:26:57Z,2024-07-23T12:26:57Z,US,United States,39.0469000000000008299139153677970170975,-77.4903000000000048430592869408428668976,Ashburn,20149,Virginia
04FdM000005ZkQdUAK,2024-07-24T09:08:24Z,005dM000004WE3FQAW,005dM000004WE3FQAW,2024-07-24T09:08:24Z,False,2024-07-24T09:08:24Z,2024-07-24T09:08:24Z,IN,India,19.0747999999999997555732988985255360603,72.8855999999999966121322358958423137665,Mumbai,400070,Maharashtra
04FdM000005ZpGXUA0,2024-07-24T09:08:40Z,005dM000004WE3FQAW,005dM000004WE3FQAW,2024-07-24T09:08:40Z,False,2024-07-24T09:08:40Z,2024-07-24T09:08:40Z,US,United States,45.8233999999999994656718627084046602249,-119.725700000000003342393029015511274338,Boardman,97818,Oregon
04FdM000005ZytaUAC,2024-07-24T09:22:36Z,005dM000004WE3FQAW,005dM000004WE3FQAW,2024-07-24T09:22:36Z,False,2024-07-24T09:22:36Z,2024-07-24T09:22:36Z,US,United States,45.8233999999999994656718627084046602249,-119.725700000000003342393029015511274338,Boardman,97818,Oregon
04FdM000005ZzcMUAS,2024-07-24T09:28:19Z,005dM000004WE3FQAW,005dM000004WE3FQAW,2024-07-24T09:28:19Z,False,2024-07-24T09:28:19Z,2024-07-24T09:28:19Z,IN,India,19.0747999999999997555732988985255360603,72.8855999999999966121322358958423137665,Mumbai,400070,Maharashtra
04FdM000005a22eUAA,2024-07-24T12:13:32Z,005dM000004WE3FQAW,005dM000004WE3FQAW,2024-07-24T12:13:32Z,False,2024-07-24T12:13:32Z,2024-07-24T12:13:32Z,US,United States,39.0469000000000008299139153677970170975,-77.4903000000000048430592869408428668976,Ashburn,20149,Virginia
04FdM000005a2aCUAQ,2024-07-24T09:15:43Z,005dM000004WE3FQAW,005dM000004WE3FQAW,2024-07-24T09:15:43Z,False,2024-07-24T09:15:43Z,2024-07-24T09:15:43Z,IN,India,19.0747999999999997555732988985255360603,72.8855999999999966121322358958423137665,Mumbai,400070,Maharashtra
04FdM000005a2mSUAQ,2024-07-24T08:55:32Z,005dM000004WE3FQAW,005dM000004WE3FQAW,2024-07-24T08:55:32Z,False,2024-07-24T08:55:32Z,2024-07-24T08:55:32Z,US,United States,39.0469000000000008299139153677970170975,-77.4903000000000048430592869408428668976,Ashburn,20149,Virginia
04FdM000005a5IHUAY,2024-07-24T09:15:47Z,005dM000004WE3FQAW,005dM000004WE3FQAW,2024-07-24T09:15:47Z,False,2024-07-24T09:15:47Z,2024-07-24T09:15:47Z,US,United States,45.8233999999999994656718627084046602249,-119.725700000000003342393029015511274338,Boardman,97818,Oregon
04FdM000005a5WXUAY,2024-07-24T09:25:09Z,005dM000004WE3FQAW,005dM000004WE3FQAW,2024-07-24T09:25:09Z,False,2024-07-24T09:25:09Z,2024-07-24T09:25:09Z,US,United States,45.8233999999999994656718627084046602249,-119.725700000000003342393029015511274338,Boardman,97818,Oregon
04FdM000005a7huUAA,2024-07-24T09:26:26Z,005dM000004WE3FQAW,005dM000004WE3FQAW,2024-07-24T09:26:26Z,False,2024-07-24T09:26:26Z,2024-07-24T09:26:26Z,US,United States,45.8233999999999994656718627084046602249,-119.725700000000003342393029015511274338,Boardman,97818,Oregon
04FdM000005a91zUAA,2024-07-24T09:06:54Z,005dM000004WE3FQAW,005dM000004WE3FQAW,2024-07-24T09:06:54Z,False,2024-07-24T09:06:54Z,2024-07-24T09:06:54Z,IN,India,19.0747999999999997555732988985255360603,72.8855999999999966121322358958423137665,Mumbai,400070,Maharashtra
04FdM000005a9zLUAQ,2024-07-24T09:25:06Z,005dM000004WE3FQAW,005dM000004WE3FQAW,2024-07-24T09:25:06Z,False,2024-07-24T09:25:06Z,2024-07-24T09:25:06Z,IN,India,19.0747999999999997555732988985255360603,72.8855999999999966121322358958423137665,Mumbai,400070,Maharashtra
04FdM000005aCuIUAU,2024-07-24T09:26:23Z,005dM000004WE3FQAW,005dM000004WE3FQAW,2024-07-24T09:26:23Z,False,2024-07-24T09:26:23Z,2024-07-24T09:26:23Z,IN,India,19.0747999999999997555732988985255360603,72.8855999999999966121322358958423137665,Mumbai,400070,Maharashtra
04FdM000005aEJOUA2,2024-07-24T09:22:33Z,005dM000004WE3FQAW,005dM000004WE3FQAW,2024-07-24T09:22:33Z,False,2024-07-24T09:22:33Z,2024-07-24T09:22:33Z,IN,India,19.0747999999999997555732988985255360603,72.8855999999999966121322358958423137665,Mumbai,400070,Maharashtra
04FdM000005ahjeUAA,2024-07-24T12:13:16Z,005dM000004WE3FQAW,005dM000004WE3FQAW,2024-07-24T12:13:16Z,False,2024-07-24T12:13:16Z,2024-07-24T12:13:16Z,US,United States,39.0469000000000008299139153677970170975,-77.4903000000000048430592869408428668976,Ashburn,20149,Virginia
04FdM000005dVBCUA2,2024-07-25T05:25:41Z,005dM000004WE3FQAW,005dM000004WE3FQAW,2024-07-25T05:25:41Z,False,2024-07-25T05:25:41Z,2024-07-25T05:25:41Z,US,United States,39.0469000000000008299139153677970170975,-77.4903000000000048430592869408428668976,Ashburn,20149,Virginia
04FdM000005sRBlUAM,2024-07-29T09:36:43Z,005dM000004WE3FQAW,005dM000004WE3FQAW,2024-07-29T09:36:43Z,False,2024-07-29T09:36:43Z,2024-07-29T09:36:43Z,US,United States,39.0469000000000008299139153677970170975,-77.4903000000000048430592869408428668976,Ashburn,20149,Virginia
04FdM000005vUwOUAU,2024-07-30T06:53:05Z,005dM000004WE3FQAW,005dM000004WE3FQAW,2024-07-30T06:53:05Z,False,2024-07-30T06:53:05Z,2024-07-30T06:53:05Z,US,United States,39.0469000000000008299139153677970170975,-77.4903000000000048430592869408428668976,Ashburn,20149,Virginia
04FdM000005w5kyUAA,2024-07-30T06:23:37Z,005dM000004WE3FQAW,005dM000004WE3FQAW,2024-07-30T06:23:37Z,False,2024-07-30T06:23:37Z,2024-07-30T06:23:37Z,IN,India,19.0747999999999997555732988985255360603,72.8855999999999966121322358958423137665,Mumbai,400070,Maharashtra
04FdM000005w61wUAA,2024-07-30T06:06:06Z,005dM000004WE3FQAW,005dM000004WE3FQAW,2024-07-30T06:06:06Z,False,2024-07-30T06:06:06Z,2024-07-30T06:06:06Z,IN,India,19.0747999999999997555732988985255360603,72.8855999999999966121322358958423137665,Mumbai,400703,Maharashtra
04FdM000005wFKEUA2,2024-07-30T06:23:49Z,005dM000004WE3FQAW,005dM000004WE3FQAW,2024-07-30T06:23:49Z,False,2024-07-30T06:23:49Z,2024-07-30T06:23:49Z,US,United States,45.8233999999999994656718627084046602249,-119.725700000000003342393029015511274338,Boardman,97818,Oregon
04FdM000005wFTnUAM,2024-07-30T06:18:44Z,005dM000004WE3FQAW,005dM000004WE3FQAW,2024-07-30T06:18:44Z,False,2024-07-30T06:18:44Z,2024-07-30T06:18:44Z,US,United States,39.0469000000000008299139153677970170975,-77.4903000000000048430592869408428668976,Ashburn,20149,Virginia
04FdM000005wG7yUAE,2024-07-30T06:05:55Z,005dM000004WE3FQAW,005dM000004WE3FQAW,2024-07-30T06:05:55Z,False,2024-07-30T06:05:55Z,2024-07-30T06:05:55Z,IN,India,19.0747999999999997555732988985255360603,72.8855999999999966121322358958423137665,Mumbai,400070,Maharashtra
04FdM000005wLFvUAM,2024-07-30T06:40:26Z,005dM000004WE3FQAW,005dM000004WE3FQAW,2024-07-30T06:40:26Z,False,2024-07-30T06:40:26Z,2024-07-30T06:40:26Z,US,United States,39.0469000000000008299139153677970170975,-77.4903000000000048430592869408428668976,Ashburn,20149,Virginia
04FdM000005wTy4UAE,2024-07-30T07:10:38Z,005dM000004WE3FQAW,005dM000004WE3FQAW,2024-07-30T07:10:38Z,False,2024-07-30T07:10:38Z,2024-07-30T07:10:38Z,US,United States,39.0469000000000008299139153677970170975,-77.4903000000000048430592869408428668976,Ashburn,20149,Virginia
04FdM000005wY1oUAE,2024-07-30T08:05:56Z,005dM000004WE3FQAW,005dM000004WE3FQAW,2024-07-30T08:05:56Z,False,2024-07-30T08:05:56Z,2024-07-30T08:05:56Z,US,United States,39.0469000000000008299139153677970170975,-77.4903000000000048430592869408428668976,Ashburn,20149,Virginia
04FdM000005wZ93UAE,2024-07-30T07:42:50Z,005dM000004WE3FQAW,005dM000004WE3FQAW,2024-07-30T07:42:50Z,False,2024-07-30T07:42:50Z,2024-07-30T07:42:50Z,US,United States,39.0469000000000008299139153677970170975,-77.4903000000000048430592869408428668976,Ashburn,20149,Virginia
04FdM000005zW1xUAE,2024-07-31T05:12:29Z,005dM000004WE3FQAW,005dM000004WE3FQAW,2024-07-31T05:12:29Z,False,2024-07-31T05:12:29Z,2024-07-31T05:12:29Z,US,United States,39.0469000000000008299139153677970170975,-77.4903000000000048430592869408428668976,Ashburn,20149,Virginia
04FdM000005zm50UAA,2024-07-31T04:42:04Z,005dM000004WE3FQAW,005dM000004WE3FQAW,2024-07-31T04:42:04Z,False,2024-07-31T04:42:04Z,2024-07-31T04:42:04Z,IN,India,19.0747999999999997555732988985255360603,72.8855999999999966121322358958423137665,Mumbai,400070,Maharashtra
04FdM000005zmmiUAA,2024-07-31T04:58:42Z,005dM000004WE3FQAW,005dM000004WE3FQAW,2024-07-31T04:58:42Z,False,2024-07-31T04:58:42Z,2024-07-31T04:58:42Z,IN,India,19.0747999999999997555732988985255360603,72.8855999999999966121322358958423137665,Mumbai,400070,Maharashtra
04FdM000005zqlaUAA,2024-07-31T05:24:07Z,005dM000004WE3FQAW,005dM000004WE3FQAW,2024-07-31T05:24:07Z,False,2024-07-31T05:24:07Z,2024-07-31T05:24:07Z,US,United States,39.0469000000000008299139153677970170975,-77.4903000000000048430592869408428668976,Ashburn,20149,Virginia
04FdM000005zrPcUAI,2024-07-31T04:58:40Z,005dM000004WE3FQAW,005dM000004WE3FQAW,2024-07-31T04:58:40Z,False,2024-07-31T04:58:40Z,2024-07-31T04:58:40Z,IN,India,19.0747999999999997555732988985255360603,72.8855999999999966121322358958423137665,Mumbai,400070,Maharashtra
04FdM000006020JUAQ,2024-07-31T06:20:36Z,005dM000004WE3FQAW,005dM000004WE3FQAW,2024-07-31T06:20:36Z,False,2024-07-31T06:20:36Z,2024-07-31T06:20:36Z,US,United States,39.0469000000000008299139153677970170975,-77.4903000000000048430592869408428668976,Ashburn,20149,Virginia
04FdM0000060cibUAA,2024-07-31T10:40:52Z,005dM000004WE3FQAW,005dM000004WE3FQAW,2024-07-31T10:40:52Z,False,2024-07-31T10:40:52Z,2024-07-31T10:40:52Z,US,United States,39.0469000000000008299139153677970170975,-77.4903000000000048430592869408428668976,Ashburn,20149,Virginia
04FdM0000060kuSUAQ,2024-07-31T11:10:57Z,005dM000004WE3FQAW,005dM000004WE3FQAW,2024-07-31T11:10:57Z,False,2024-07-31T11:10:57Z,2024-07-31T11:10:57Z,US,United States,39.0469000000000008299139153677970170975,-77.4903000000000048430592869408428668976,Ashburn,20149,Virginia
04FdM0000060nFaUAI,2024-07-31T10:32:21Z,005dM000004WE3FQAW,005dM000004WE3FQAW,2024-07-31T10:32:21Z,False,2024-07-31T10:32:21Z,2024-07-31T10:32:21Z,US,United States,39.0469000000000008299139153677970170975,-77.4903000000000048430592869408428668976,Ashburn,20149,Virginia
04FdM0000060pM1UAI,2024-07-31T10:30:45Z,005dM000004WE3FQAW,005dM000004WE3FQAW,2024-07-31T10:30:45Z,False,2024-07-31T10:30:45Z,2024-07-31T10:30:45Z,US,United States,39.0469000000000008299139153677970170975,-77.4903000000000048430592869408428668976,Ashburn,20149,Virginia
04FdM0000060q6cUAA,2024-07-31T10:28:00Z,005dM000004WE3FQAW,005dM000004WE3FQAW,2024-07-31T10:28:00Z,False,2024-07-31T10:28:00Z,2024-07-31T10:28:00Z,US,United States,39.0469000000000008299139153677970170975,-77.4903000000000048430592869408428668976,Ashburn,20149,Virginia
04FdM0000060qwEUAQ,2024-07-31T10:21:40Z,005dM000004WE3FQAW,005dM000004WE3FQAW,2024-07-31T10:21:40Z,False,2024-07-31T10:21:40Z,2024-07-31T10:21:40Z,IN,India,19.0747999999999997555732988985255360603,72.8855999999999966121322358958423137665,Mumbai,400070,Maharashtra
04FdM0000060r5qUAA,2024-07-31T10:28:39Z,005dM000004WE3FQAW,005dM000004WE3FQAW,2024-07-31T10:28:39Z,False,2024-07-31T10:28:39Z,2024-07-31T10:28:39Z,US,United States,39.0469000000000008299139153677970170975,-77.4903000000000048430592869408428668976,Ashburn,20149,Virginia
04FdM0000060t7gUAA,2024-07-31T11:04:30Z,005dM000004WE3FQAW,005dM000004WE3FQAW,2024-07-31T11:04:30Z,False,2024-07-31T11:04:30Z,2024-07-31T11:04:30Z,US,United States,39.0469000000000008299139153677970170975,-77.4903000000000048430592869408428668976,Ashburn,20149,Virginia
04FdM0000060ujhUAA,2024-07-31T11:14:22Z,005dM000004WE3FQAW,005dM000004WE3FQAW,2024-07-31T11:14:22Z,False,2024-07-31T11:14:22Z,2024-07-31T11:14:22Z,US,United States,39.0469000000000008299139153677970170975,-77.4903000000000048430592869408428668976,Ashburn,20149,Virginia
04FdM00000611UrUAI,2024-07-31T11:02:06Z,005dM000004WE3FQAW,005dM000004WE3FQAW,2024-07-31T11:02:06Z,False,2024-07-31T11:02:06Z,2024-07-31T11:02:06Z,US,United States,39.0469000000000008299139153677970170975,-77.4903000000000048430592869408428668976,Ashburn,20149,Virginia
04FdM00000612fUUAQ,2024-07-31T11:13:19Z,005dM000004WE3FQAW,005dM000004WE3FQAW,2024-07-31T11:13:19Z,False,2024-07-31T11:13:19Z,2024-07-31T11:13:19Z,US,United States,39.0469000000000008299139153677970170975,-77.4903000000000048430592869408428668976,Ashburn,20149,Virginia
04FdM0000063vplUAA,2024-08-01T04:46:44Z,005dM000004WE3FQAW,005dM000004WE3FQAW,2024-08-01T04:46:44Z,False,2024-08-01T04:46:44Z,2024-08-01T04:46:44Z,IN,India,19.0747999999999997555732988985255360603,72.8855999999999966121322358958423137665,Mumbai,400070,Maharashtra
04FdM0000063w9AUAQ,2024-08-01T04:47:34Z,005dM000004WE3FQAW,005dM000004WE3FQAW,2024-08-01T04:47:34Z,False,2024-08-01T04:47:34Z,2024-08-01T04:47:34Z,US,United States,39.0469000000000008299139153677970170975,-77.4903000000000048430592869408428668976,Ashburn,20149,Virginia
04FdM0000064MrWUAU,2024-08-01T06:50:55Z,005dM000004WE3FQAW,005dM000004WE3FQAW,2024-08-01T06:50:55Z,False,2024-08-01T06:50:55Z,2024-08-01T06:50:55Z,US,United States,39.0469000000000008299139153677970170975,-77.4903000000000048430592869408428668976,Ashburn,20149,Virginia
04FdM0000065LeBUAU,2024-08-01T12:05:00Z,005dM000004WE3FQAW,005dM000004WE3FQAW,2024-08-01T12:05:00Z,False,2024-08-01T12:05:00Z,2024-08-01T12:05:00Z,IN,India,19.0747999999999997555732988985255360603,72.8855999999999966121322358958423137665,Mumbai,400070,Maharashtra
04FdM0000065MsZUAU,2024-08-01T12:05:02Z,005dM000004WE3FQAW,005dM000004WE3FQAW,2024-08-01T12:05:02Z,False,2024-08-01T12:05:02Z,2024-08-01T12:05:02Z,IN,India,19.0747999999999997555732988985255360603,72.8855999999999966121322358958423137665,Mumbai,400070,Maharashtra
04FdM000006IgiWUAS,2024-08-05T05:40:20Z,005dM000004WE3FQAW,005dM000004WE3FQAW,2024-08-05T05:40:20Z,False,2024-08-05T05:40:20Z,2024-08-05T05:40:20Z,US,United States,39.0469000000000008299139153677970170975,-77.4903000000000048430592869408428668976,Ashburn,20149,Virginia
04FdM000006IraWUAS,2024-08-05T06:23:46Z,005dM000004WE3FQAW,005dM000004WE3FQAW,2024-08-05T06:23:46Z,False,2024-08-05T06:23:46Z,2024-08-05T06:23:46Z,US,United States,39.0469000000000008299139153677970170975,-77.4903000000000048430592869408428668976,Ashburn,20149,Virginia
04FdM000006IuYQUA0,2024-08-05T06:22:47Z,005dM000004WE3FQAW,005dM000004WE3FQAW,2024-08-05T06:22:47Z,False,2024-08-05T06:22:47Z,2024-08-05T06:22:47Z,US,United States,39.0469000000000008299139153677970170975,-77.4903000000000048430592869408428668976,Ashburn,20149,Virginia
04FdM000006N0CjUAK,2024-08-06T04:31:19Z,005dM000004WE3FQAW,005dM000004WE3FQAW,2024-08-06T04:31:19Z,False,2024-08-06T04:31:19Z,2024-08-06T04:31:19Z,IN,India,19.0747999999999997555732988985255360603,72.8855999999999966121322358958423137665,Mumbai,400070,Maharashtra
04FdM000006N9l6UAC,2024-08-06T04:30:43Z,005dM000004WE3FQAW,005dM000004WE3FQAW,2024-08-06T04:30:43Z,False,2024-08-06T04:30:43Z,2024-08-06T04:30:43Z,IN,India,19.0747999999999997555732988985255360603,72.8855999999999966121322358958423137665,Mumbai,400070,Maharashtra
04FdM000006SQdvUAG,2024-08-07T10:13:19Z,005dM000004WE3FQAW,005dM000004WE3FQAW,2024-08-07T10:13:19Z,False,2024-08-07T10:13:19Z,2024-08-07T10:13:19Z,US,United States,39.0469000000000008299139153677970170975,-77.4903000000000048430592869408428668976,Ashburn,20149,Virginia
04FdM000006akdcUAA,2024-08-09T05:32:22Z,005dM000004WE3FQAW,005dM000004WE3FQAW,2024-08-09T05:32:22Z,False,2024-08-09T05:32:22Z,2024-08-09T05:32:22Z,IN,India,19.0747999999999997555732988985255360603,72.8855999999999966121322358958423137665,Mumbai,400070,Maharashtra
04FdM000006axrAUAQ,2024-08-09T06:49:09Z,005dM000004WE3FQAW,005dM000004WE3FQAW,2024-08-09T06:49:09Z,False,2024-08-09T06:49:09Z,2024-08-09T06:49:09Z,US,United States,39.0469000000000008299139153677970170975,-77.4903000000000048430592869408428668976,Ashburn,20149,Virginia
04FdM000006msSfUAI,2024-08-12T09:34:52Z,005dM000004WE3FQAW,005dM000004WE3FQAW,2024-08-12T09:34:52Z,False,2024-08-12T09:34:52Z,2024-08-12T09:34:52Z,US,United States,39.0469000000000008299139153677970170975,-77.4903000000000048430592869408428668976,Ashburn,20149,Virginia
04FdM000008MYNGUA4,2024-09-05T06:28:17Z,005dM000004WE3FQAW,005dM000004WE3FQAW,2024-09-05T06:28:17Z,False,2024-09-05T06:28:17Z,2024-09-05T06:28:17Z,IN,India,19.0747999999999997555732988985255360603,72.8855999999999966121322358958423137665,Mumbai,400070,Maharashtra
04FdM000008Mu8zUAC,2024-09-05T08:05:39Z,005dM000004WE3FQAW,005dM000004WE3FQAW,2024-09-05T08:05:39Z,False,2024-09-05T08:05:39Z,2024-09-05T08:05:39Z,IN,India,19.0747999999999997555732988985255360603,72.8855999999999966121322358958423137665,Mumbai,400070,Maharashtra
04FdM000008N1QHUA0,2024-09-05T08:05:42Z,005dM000004WE3FQAW,005dM000004WE3FQAW,2024-09-05T08:05:42Z,False,2024-09-05T08:05:42Z,2024-09-05T08:05:42Z,IN,India,19.0747999999999997555732988985255360603,72.8855999999999966121322358958423137665,Mumbai,400070,Maharashtra
04FdM000008NRcoUAG,2024-09-05T11:07:13Z,005dM000004WE3FQAW,005dM000004WE3FQAW,2024-09-05T11:07:13Z,False,2024-09-05T11:07:13Z,2024-09-05T11:07:13Z,IN,India,19.0747999999999997555732988985255360603,72.8855999999999966121322358958423137665,Mumbai,400703,Maharashtra
04FdM000008NUVkUAO,2024-09-05T11:07:04Z,005dM000004WE3FQAW,005dM000004WE3FQAW,2024-09-05T11:07:04Z,False,2024-09-05T11:07:04Z,2024-09-05T11:07:04Z,IN,India,19.0747999999999997555732988985255360603,72.8855999999999966121322358958423137665,Mumbai,400070,Maharashtra
04FdM000008QuDMUA0,2024-09-06T05:39:18Z,005dM000004WE3FQAW,005dM000004WE3FQAW,2024-09-06T05:39:18Z,False,2024-09-06T05:39:18Z,2024-09-06T05:39:18Z,IN,India,19.0747999999999997555732988985255360603,72.8855999999999966121322358958423137665,Mumbai,400070,Maharashtra
04FdM000008RG2lUAG,2024-09-06T10:34:36Z,005dM000004WE3FQAW,005dM000004WE3FQAW,2024-09-06T10:34:36Z,False,2024-09-06T10:34:36Z,2024-09-06T10:34:36Z,IN,India,19.0747999999999997555732988985255360603,72.8855999999999966121322358958423137665,Mumbai,400703,Maharashtra
04FdM000008RhipUAC,2024-09-06T10:35:13Z,005dM000004WE3FQAW,005dM000004WE3FQAW,2024-09-06T10:35:13Z,False,2024-09-06T10:35:13Z,2024-09-06T10:35:13Z,IN,India,19.0747999999999997555732988985255360603,72.8855999999999966121322358958423137665,Mumbai,400703,Maharashtra
04FdM000008RiAWUA0,2024-09-06T10:47:20Z,005dM000004WE3FQAW,005dM000004WE3FQAW,2024-09-06T10:47:20Z,False,2024-09-06T10:47:20Z,2024-09-06T10:47:20Z,IN,India,19.0747999999999997555732988985255360603,72.8855999999999966121322358958423137665,Mumbai,400703,Maharashtra
04FdM000008RinAUAS,2024-09-06T10:13:58Z,005dM000004WE3FQAW,005dM000004WE3FQAW,2024-09-06T10:13:58Z,False,2024-09-06T10:13:58Z,2024-09-06T10:13:58Z,IN,India,19.0747999999999997555732988985255360603,72.8855999999999966121322358958423137665,Mumbai,400703,Maharashtra
04FdM000008Rj1zUAC,2024-09-06T10:29:44Z,005dM000004WE3FQAW,005dM000004WE3FQAW,2024-09-06T10:29:44Z,False,2024-09-06T10:29:44Z,2024-09-06T10:29:44Z,IN,India,19.0747999999999997555732988985255360603,72.8855999999999966121322358958423137665,Mumbai,400703,Maharashtra
04FdM000008Rj3FUAS,2024-09-06T10:14:29Z,005dM000004WE3FQAW,005dM000004WE3FQAW,2024-09-06T10:14:29Z,False,2024-09-06T10:14:29Z,2024-09-06T10:14:29Z,IN,India,19.0747999999999997555732988985255360603,72.8855999999999966121322358958423137665,Mumbai,400703,Maharashtra
04FdM000008RkdiUAC,2024-09-06T10:26:11Z,005dM000004WE3FQAW,005dM000004WE3FQAW,2024-09-06T10:26:11Z,False,2024-09-06T10:26:11Z,2024-09-06T10:26:11Z,IN,India,19.0747999999999997555732988985255360603,72.8855999999999966121322358958423137665,Mumbai,400703,Maharashtra
04FdM000008RktlUAC,2024-09-06T10:32:30Z,005dM000004WE3FQAW,005dM000004WE3FQAW,2024-09-06T10:32:30Z,False,2024-09-06T10:32:30Z,2024-09-06T10:32:30Z,IN,India,19.0747999999999997555732988985255360603,72.8855999999999966121322358958423137665,Mumbai,400703,Maharashtra
04FdM000008RoAmUAK,2024-09-06T10:17:21Z,005dM000004WE3FQAW,005dM000004WE3FQAW,2024-09-06T10:17:21Z,False,2024-09-06T10:17:21Z,2024-09-06T10:17:21Z,IN,India,19.0747999999999997555732988985255360603,72.8855999999999966121322358958423137665,Mumbai,400703,Maharashtra
04FdM000008Rq50UAC,2024-09-06T11:10:23Z,005dM000004WE3FQAW,005dM000004WE3FQAW,2024-09-06T11:10:23Z,False,2024-09-06T11:10:23Z,2024-09-06T11:10:23Z,IN,India,19.0747999999999997555732988985255360603,72.8855999999999966121322358958423137665,Mumbai,400703,Maharashtra
04FdM000008Rr8dUAC,2024-09-06T10:45:33Z,005dM000004WE3FQAW,005dM000004WE3FQAW,2024-09-06T10:45:33Z,False,2024-09-06T10:45:33Z,2024-09-06T10:45:33Z,IN,India,19.0747999999999997555732988985255360603,72.8855999999999966121322358958423137665,Mumbai,400703,Maharashtra
04FdM000008RtQkUAK,2024-09-06T11:07:19Z,005dM000004WE3FQAW,005dM000004WE3FQAW,2024-09-06T11:07:19Z,False,2024-09-06T11:07:19Z,2024-09-06T11:07:19Z,IN,India,19.0747999999999997555732988985255360603,72.8855999999999966121322358958423137665,Mumbai,400703,Maharashtra
04FdM000008RtmgUAC,2024-09-06T10:47:07Z,005dM000004WE3FQAW,005dM000004WE3FQAW,2024-09-06T10:47:07Z,False,2024-09-06T10:47:07Z,2024-09-06T10:47:07Z,IN,India,19.0747999999999997555732988985255360603,72.8855999999999966121322358958423137665,Mumbai,400703,Maharashtra
04FdM000008Rv60UAC,2024-09-06T11:26:31Z,005dM000004WE3FQAW,005dM000004WE3FQAW,2024-09-06T11:26:31Z,False,2024-09-06T11:26:31Z,2024-09-06T11:26:31Z,IN,India,19.0747999999999997555732988985255360603,72.8855999999999966121322358958423137665,Mumbai,400703,Maharashtra
04FdM000008RwmbUAC,2024-09-06T11:25:42Z,005dM000004WE3FQAW,005dM000004WE3FQAW,2024-09-06T11:25:42Z,False,2024-09-06T11:25:42Z,2024-09-06T11:25:42Z,IN,India,19.0747999999999997555732988985255360603,72.8855999999999966121322358958423137665,Mumbai,400703,Maharashtra
04FdM000008S0wbUAC,2024-09-06T11:24:06Z,005dM000004WE3FQAW,005dM000004WE3FQAW,2024-09-06T11:24:06Z,False,2024-09-06T11:24:06Z,2024-09-06T11:24:06Z,IN,India,19.0747999999999997555732988985255360603,72.8855999999999966121322358958423137665,Mumbai,400703,Maharashtra
04FdM000008S1SoUAK,2024-09-06T11:24:29Z,005dM000004WE3FQAW,005dM000004WE3FQAW,2024-09-06T11:24:29Z,False,2024-09-06T11:24:29Z,2024-09-06T11:24:29Z,IN,India,19.0747999999999997555732988985255360603,72.8855999999999966121322358958423137665,Mumbai,400070,Maharashtra
04FdM000008aAQDUA2,2024-09-09T04:10:05Z,005dM000004WE3FQAW,005dM000004WE3FQAW,2024-09-09T04:10:05Z,False,2024-09-09T04:10:05Z,2024-09-09T04:10:05Z,IN,India,19.0747999999999997555732988985255360603,72.8855999999999966121322358958423137665,Mumbai,400703,Maharashtra
04FdM000008aCRXUA2,2024-09-09T03:52:48Z,005dM000004WE3FQAW,005dM000004WE3FQAW,2024-09-09T03:52:48Z,False,2024-09-09T03:52:48Z,2024-09-09T03:52:48Z,IN,India,19.0747999999999997555732988985255360603,72.8855999999999966121322358958423137665,Mumbai,400070,Maharashtra
04FdM000008aDfYUAU,2024-09-09T04:28:24Z,005dM000004WE3FQAW,005dM000004WE3FQAW,2024-09-09T04:28:24Z,False,2024-09-09T04:28:24Z,2024-09-09T04:28:24Z,IN,India,19.0747999999999997555732988985255360603,72.8855999999999966121322358958423137665,Mumbai,400703,Maharashtra
04FdM000008aEIRUA2,2024-09-09T04:34:49Z,005dM000004WE3FQAW,005dM000004WE3FQAW,2024-09-09T04:34:49Z,False,2024-09-09T04:34:49Z,2024-09-09T04:34:49Z,IN,India,19.0747999999999997555732988985255360603,72.8855999999999966121322358958423137665,Mumbai,400703,Maharashtra
04FdM000008aHyxUAE,2024-09-09T04:06:56Z,005dM000004WE3FQAW,005dM000004WE3FQAW,2024-09-09T04:06:56Z,False,2024-09-09T04:06:56Z,2024-09-09T04:06:56Z,IN,India,19.0747999999999997555732988985255360603,72.8855999999999966121322358958423137665,Mumbai,400703,Maharashtra
04FdM000008aHzRUAU,2024-09-09T05:29:53Z,005dM000004WE3FQAW,005dM000004WE3FQAW,2024-09-09T05:29:53Z,False,2024-09-09T05:29:53Z,2024-09-09T05:29:53Z,IN,India,19.0747999999999997555732988985255360603,72.8855999999999966121322358958423137665,Mumbai,400703,Maharashtra
04FdM000008aJ9iUAE,2024-09-09T04:10:45Z,005dM000004WE3FQAW,005dM000004WE3FQAW,2024-09-09T04:10:45Z,False,2024-09-09T04:10:45Z,2024-09-09T04:10:45Z,IN,India,19.0747999999999997555732988985255360603,72.8855999999999966121322358958423137665,Mumbai,400703,Maharashtra
04FdM000008aK2MUAU,2024-09-09T04:22:26Z,005dM000004WE3FQAW,005dM000004WE3FQAW,2024-09-09T04:22:26Z,False,2024-09-09T04:22:26Z,2024-09-09T04:22:26Z,IN,India,19.0747999999999997555732988985255360603,72.8855999999999966121322358958423137665,Mumbai,400703,Maharashtra
04FdM000008aKLkUAM,2024-09-09T04:30:21Z,005dM000004WE3FQAW,005dM000004WE3FQAW,2024-09-09T04:30:21Z,False,2024-09-09T04:30:21Z,2024-09-09T04:30:21Z,IN,India,19.0747999999999997555732988985255360603,72.8855999999999966121322358958423137665,Mumbai,400703,Maharashtra
04FdM000008aP2jUAE,2024-09-09T05:39:14Z,005dM000004WE3FQAW,005dM000004WE3FQAW,2024-09-09T05:39:14Z,False,2024-09-09T05:39:14Z,2024-09-09T05:39:14Z,IN,India,19.0747999999999997555732988985255360603,72.8855999999999966121322358958423137665,Mumbai,400703,Maharashtra
04FdM000008aPDvUAM,2024-09-09T05:23:42Z,005dM000004WE3FQAW,005dM000004WE3FQAW,2024-09-09T05:23:42Z,False,2024-09-09T05:23:42Z,2024-09-09T05:23:42Z,IN,India,19.0747999999999997555732988985255360603,72.8855999999999966121322358958423137665,Mumbai,400703,Maharashtra
04FdM000008aTTkUAM,2024-09-09T05:12:40Z,005dM000004WE3FQAW,005dM000004WE3FQAW,2024-09-09T05:12:40Z,False,2024-09-09T05:12:40Z,2024-09-09T05:12:40Z,IN,India,19.0747999999999997555732988985255360603,72.8855999999999966121322358958423137665,Mumbai,400703,Maharashtra
04FdM000008aTfSUAU,2024-09-09T05:38:17Z,005dM000004WE3FQAW,005dM000004WE3FQAW,2024-09-09T05:38:17Z,False,2024-09-09T05:38:17Z,2024-09-09T05:38:17Z,IN,India,19.0747999999999997555732988985255360603,72.8855999999999966121322358958423137665,Mumbai,400703,Maharashtra
04FdM000008aU6pUAE,2024-09-09T05:30:57Z,005dM000004WE3FQAW,005dM000004WE3FQAW,2024-09-09T05:30:57Z,False,2024-09-09T05:30:57Z,2024-09-09T05:30:57Z,IN,India,19.0747999999999997555732988985255360603,72.8855999999999966121322358958423137665,Mumbai,400703,Maharashtra
04FdM000008aUxjUAE,2024-09-09T05:18:27Z,005dM000004WE3FQAW,005dM000004WE3FQAW,2024-09-09T05:18:27Z,False,2024-09-09T05:18:27Z,2024-09-09T05:18:27Z,IN,India,19.0747999999999997555732988985255360603,72.8855999999999966121322358958423137665,Mumbai,400703,Maharashtra
04FdM000008aW3XUAU,2024-09-09T05:40:32Z,005dM000004WE3FQAW,005dM000004WE3FQAW,2024-09-09T05:40:32Z,False,2024-09-09T05:40:32Z,2024-09-09T05:40:32Z,IN,India,19.0747999999999997555732988985255360603,72.8855999999999966121322358958423137665,Mumbai,400703,Maharashtra
04FdM000008aWDIUA2,2024-09-09T06:14:00Z,005dM000004WE3FQAW,005dM000004WE3FQAW,2024-09-09T06:14:00Z,False,2024-09-09T06:14:00Z,2024-09-09T06:14:00Z,IN,India,19.0747999999999997555732988985255360603,72.8855999999999966121322358958423137665,Mumbai,400703,Maharashtra
04FdM000008aWPsUAM,2024-09-09T05:18:39Z,005dM000004WE3FQAW,005dM000004WE3FQAW,2024-09-09T05:18:39Z,False,2024-09-09T05:18:39Z,2024-09-09T05:18:39Z,IN,India,19.0747999999999997555732988985255360603,72.8855999999999966121322358958423137665,Mumbai,400703,Maharashtra
04FdM000008aWtSUAU,2024-09-09T06:15:07Z,005dM000004WE3FQAW,005dM000004WE3FQAW,2024-09-09T06:15:07Z,False,2024-09-09T06:15:07Z,2024-09-09T06:15:07Z,IN,India,19.0747999999999997555732988985255360603,72.8855999999999966121322358958423137665,Mumbai,400703,Maharashtra
04FdM000008aXlrUAE,2024-09-09T05:37:41Z,005dM000004WE3FQAW,005dM000004WE3FQAW,2024-09-09T05:37:41Z,False,2024-09-09T05:37:41Z,2024-09-09T05:37:41Z,IN,India,19.0747999999999997555732988985255360603,72.8855999999999966121322358958423137665,Mumbai,400703,Maharashtra
04FdM000008aZ15UAE,2024-09-09T05:26:34Z,005dM000004WE3FQAW,005dM000004WE3FQAW,2024-09-09T05:26:34Z,False,2024-09-09T05:26:34Z,2024-09-09T05:26:34Z,IN,India,19.0747999999999997555732988985255360603,72.8855999999999966121322358958423137665,Mumbai,400703,Maharashtra
04FdM000008abVuUAI,2024-09-09T05:40:00Z,005dM000004WE3FQAW,005dM000004WE3FQAW,2024-09-09T05:40:00Z,False,2024-09-09T05:40:00Z,2024-09-09T05:40:00Z,IN,India,19.0747999999999997555732988985255360603,72.8855999999999966121322358958423137665,Mumbai,400703,Maharashtra
04FdM000008acP7UAI,2024-09-09T06:32:45Z,005dM000004WE3FQAW,005dM000004WE3FQAW,2024-09-09T06:32:45Z,False,2024-09-09T06:32:45Z,2024-09-09T06:32:45Z,IN,India,19.0747999999999997555732988985255360603,72.8855999999999966121322358958423137665,Mumbai,400703,Maharashtra
04FdM000008adJ7UAI,2024-09-09T06:32:12Z,005dM000004WE3FQAW,005dM000004WE3FQAW,2024-09-09T06:32:12Z,False,2024-09-09T06:32:12Z,2024-09-09T06:32:12Z,IN,India,19.0747999999999997555732988985255360603,72.8855999999999966121322358958423137665,Mumbai,400703,Maharashtra
04FdM000008aeVnUAI,2024-09-09T06:12:21Z,005dM000004WE3FQAW,005dM000004WE3FQAW,2024-09-09T06:12:21Z,False,2024-09-09T06:12:21Z,2024-09-09T06:12:21Z,IN,India,19.0747999999999997555732988985255360603,72.8855999999999966121322358958423137665,Mumbai,400703,Maharashtra
04FdM000008akFqUAI,2024-09-09T06:29:43Z,005dM000004WE3FQAW,005dM000004WE3FQAW,2024-09-09T06:29:43Z,False,2024-09-09T06:29:43Z,2024-09-09T06:29:43Z,IN,India,19.0747999999999997555732988985255360603,72.8855999999999966121322358958423137665,Mumbai,400703,Maharashtra
04FdM000008atBkUAI,2024-09-09T09:02:24Z,005dM000004WE3FQAW,005dM000004WE3FQAW,2024-09-09T09:02:24Z,False,2024-09-09T09:02:24Z,2024-09-09T09:02:24Z,IN,India,19.0747999999999997555732988985255360603,72.8855999999999966121322358958423137665,Mumbai,400703,Maharashtra
04FdM000008b39EUAQ,2024-09-09T09:09:12Z,005dM000004WE3FQAW,005dM000004WE3FQAW,2024-09-09T09:09:12Z,False,2024-09-09T09:09:12Z,2024-09-09T09:09:12Z,IN,India,19.0747999999999997555732988985255360603,72.8855999999999966121322358958423137665,Mumbai,400703,Maharashtra
04FdM000008b5w4UAA,2024-09-09T09:51:37Z,005dM000004WE3FQAW,005dM000004WE3FQAW,2024-09-09T09:51:37Z,False,2024-09-09T09:51:37Z,2024-09-09T09:51:37Z,IN,India,19.0747999999999997555732988985255360603,72.8855999999999966121322358958423137665,Mumbai,400703,Maharashtra
04FdM000008b72yUAA,2024-09-09T09:03:56Z,005dM000004WE3FQAW,005dM000004WE3FQAW,2024-09-09T09:03:56Z,False,2024-09-09T09:03:56Z,2024-09-09T09:03:56Z,IN,India,19.0747999999999997555732988985255360603,72.8855999999999966121322358958423137665,Mumbai,400703,Maharashtra
04FdM000008b7BMUAY,2024-09-09T09:10:12Z,005dM000004WE3FQAW,005dM000004WE3FQAW,2024-09-09T09:10:12Z,False,2024-09-09T09:10:12Z,2024-09-09T09:10:12Z,IN,India,19.0747999999999997555732988985255360603,72.8855999999999966121322358958423137665,Mumbai,400703,Maharashtra
04FdM000008b8YoUAI,2024-09-09T09:49:51Z,005dM000004WE3FQAW,005dM000004WE3FQAW,2024-09-09T09:49:51Z,False,2024-09-09T09:49:51Z,2024-09-09T09:49:51Z,IN,India,19.0747999999999997555732988985255360603,72.8855999999999966121322358958423137665,Mumbai,400703,Maharashtra
04FdM000008bAibUAE,2024-09-09T09:53:26Z,005dM000004WE3FQAW,005dM000004WE3FQAW,2024-09-09T09:53:26Z,False,2024-09-09T09:53:26Z,2024-09-09T09:53:26Z,IN,India,19.0747999999999997555732988985255360603,72.8855999999999966121322358958423137665,Mumbai,400703,Maharashtra
04FdM000008bCouUAE,2024-09-09T09:08:52Z,005dM000004WE3FQAW,005dM000004WE3FQAW,2024-09-09T09:08:52Z,False,2024-09-09T09:08:52Z,2024-09-09T09:08:52Z,IN,India,19.0747999999999997555732988985255360603,72.8855999999999966121322358958423137665,Mumbai,400703,Maharashtra
04FdM000008bEFmUAM,2024-09-09T09:15:37Z,005dM000004WE3FQAW,005dM000004WE3FQAW,2024-09-09T09:15:37Z,False,2024-09-09T09:15:37Z,2024-09-09T09:15:37Z,IN,India,19.0747999999999997555732988985255360603,72.8855999999999966121322358958423137665,Mumbai,400703,Maharashtra
04FdM000008edxkUAA,2024-09-10T04:37:14Z,005dM000004WE3FQAW,005dM000004WE3FQAW,2024-09-10T04:37:14Z,False,2024-09-10T04:37:14Z,2024-09-10T04:37:14Z,IN,India,19.0747999999999997555732988985255360603,72.8855999999999966121322358958423137665,Mumbai,400703,Maharashtra
04FdM000008egMCUAY,2024-09-10T05:38:45Z,005dM000004WE3FQAW,005dM000004WE3FQAW,2024-09-10T05:38:45Z,False,2024-09-10T05:38:45Z,2024-09-10T05:38:45Z,IN,India,19.0747999999999997555732988985255360603,72.8855999999999966121322358958423137665,Mumbai,400703,Maharashtra
04FdM000008ekZHUAY,2024-09-10T06:40:22Z,005dM000004WE3FQAW,005dM000004WE3FQAW,2024-09-10T06:40:22Z,False,2024-09-10T06:40:22Z,2024-09-10T06:40:22Z,IN,India,19.0747999999999997555732988985255360603,72.8855999999999966121322358958423137665,Mumbai,400703,Maharashtra
04FdM000008ellTUAQ,2024-09-10T04:33:26Z,005dM000004WE3FQAW,005dM000004WE3FQAW,2024-09-10T04:33:26Z,False,2024-09-10T04:33:26Z,2024-09-10T04:33:26Z,IN,India,19.0747999999999997555732988985255360603,72.8855999999999966121322358958423137665,Mumbai,400070,Maharashtra
04FdM000008enuFUAQ,2024-09-10T05:26:40Z,005dM000004WE3FQAW,005dM000004WE3FQAW,2024-09-10T05:26:40Z,False,2024-09-10T05:26:40Z,2024-09-10T05:26:40Z,IN,India,19.0747999999999997555732988985255360603,72.8855999999999966121322358958423137665,Mumbai,400703,Maharashtra
04FdM000008eo77UAA,2024-09-10T05:36:29Z,005dM000004WE3FQAW,005dM000004WE3FQAW,2024-09-10T05:36:29Z,False,2024-09-10T05:36:29Z,2024-09-10T05:36:29Z,IN,India,19.0747999999999997555732988985255360603,72.8855999999999966121322358958423137665,Mumbai,400703,Maharashtra
04FdM000008eoL4UAI,2024-09-10T04:43:17Z,005dM000004WE3FQAW,005dM000004WE3FQAW,2024-09-10T04:43:17Z,False,2024-09-10T04:43:17Z,2024-09-10T04:43:17Z,IN,India,19.0747999999999997555732988985255360603,72.8855999999999966121322358958423137665,Mumbai,400070,Maharashtra
04FdM000008eoklUAA,2024-09-10T04:34:37Z,005dM000004WE3FQAW,005dM000004WE3FQAW,2024-09-10T04:34:37Z,False,2024-09-10T04:34:37Z,2024-09-10T04:34:37Z,IN,India,19.0747999999999997555732988985255360603,72.8855999999999966121322358958423137665,Mumbai,400070,Maharashtra
04FdM000008eokyUAA,2024-09-10T04:47:23Z,005dM000004WE3FQAW,005dM000004WE3FQAW,2024-09-10T04:47:23Z,False,2024-09-10T04:47:23Z,2024-09-10T04:47:23Z,IN,India,19.0747999999999997555732988985255360603,72.8855999999999966121322358958423137665,Mumbai,400703,Maharashtra
04FdM000008eosxUAA,2024-09-10T04:45:04Z,005dM000004WE3FQAW,005dM000004WE3FQAW,2024-09-10T04:45:04Z,False,2024-09-10T04:45:04Z,2024-09-10T04:45:04Z,IN,India,19.0747999999999997555732988985255360603,72.8855999999999966121322358958423137665,Mumbai,400703,Maharashtra
04FdM000008ep8rUAA,2024-09-10T04:33:27Z,005dM000004WE3FQAW,005dM000004WE3FQAW,2024-09-10T04:33:27Z,False,2024-09-10T04:33:27Z,2024-09-10T04:33:27Z,IN,India,19.0747999999999997555732988985255360603,72.8855999999999966121322358958423137665,Mumbai,400070,Maharashtra
04FdM000008esLZUAY,2024-09-10T05:11:59Z,005dM000004WE3FQAW,005dM000004WE3FQAW,2024-09-10T05:11:59Z,False,2024-09-10T05:11:59Z,2024-09-10T05:11:59Z,IN,India,19.0747999999999997555732988985255360603,72.8855999999999966121322358958423137665,Mumbai,400703,Maharashtra
04FdM000008esZzUAI,2024-09-10T05:10:04Z,005dM000004WE3FQAW,005dM000004WE3FQAW,2024-09-10T05:10:04Z,False,2024-09-10T05:10:04Z,2024-09-10T05:10:04Z,IN,India,19.0747999999999997555732988985255360603,72.8855999999999966121322358958423137665,Mumbai,400703,Maharashtra
04FdM000008etOEUAY,2024-09-10T05:33:26Z,005dM000004WE3FQAW,005dM000004WE3FQAW,2024-09-10T05:33:26Z,False,2024-09-10T05:33:26Z,2024-09-10T05:33:26Z,IN,India,19.0747999999999997555732988985255360603,72.8855999999999966121322358958423137665,Mumbai,400703,Maharashtra
04FdM000008etRKUAY,2024-09-10T05:13:01Z,005dM000004WE3FQAW,005dM000004WE3FQAW,2024-09-10T05:13:01Z,False,2024-09-10T05:13:01Z,2024-09-10T05:13:01Z,IN,India,19.0747999999999997555732988985255360603,72.8855999999999966121322358958423137665,Mumbai,400703,Maharashtra
04FdM000008ethQUAQ,2024-09-10T05:28:08Z,005dM000004WE3FQAW,005dM000004WE3FQAW,2024-09-10T05:28:08Z,False,2024-09-10T05:28:08Z,2024-09-10T05:28:08Z,IN,India,19.0747999999999997555732988985255360603,72.8855999999999966121322358958423137665,Mumbai,400703,Maharashtra
04FdM000008ev09UAA,2024-09-10T05:41:39Z,005dM000004WE3FQAW,005dM000004WE3FQAW,2024-09-10T05:41:39Z,False,2024-09-10T05:41:39Z,2024-09-10T05:41:39Z,IN,India,19.0747999999999997555732988985255360603,72.8855999999999966121322358958423137665,Mumbai,400703,Maharashtra
04FdM000008ewteUAA,2024-09-10T05:29:27Z,005dM000004WE3FQAW,005dM000004WE3FQAW,2024-09-10T05:29:27Z,False,2024-09-10T05:29:27Z,2024-09-10T05:29:27Z,IN,India,19.0747999999999997555732988985255360603,72.8855999999999966121322358958423137665,Mumbai,400703,Maharashtra
04FdM000008eyx5UAA,2024-09-10T05:52:28Z,005dM000004WE3FQAW,005dM000004WE3FQAW,2024-09-10T05:52:28Z,False,2024-09-10T05:52:28Z,2024-09-10T05:52:28Z,IN,India,19.0747999999999997555732988985255360603,72.8855999999999966121322358958423137665,Mumbai,400703,Maharashtra
04FdM000008ez3NUAQ,2024-09-10T05:31:38Z,005dM000004WE3FQAW,005dM000004WE3FQAW,2024-09-10T05:31:38Z,False,2024-09-10T05:31:38Z,2024-09-10T05:31:38Z,IN,India,19.0747999999999997555732988985255360603,72.8855999999999966121322358958423137665,Mumbai,400703,Maharashtra
04FdM000008ezSEUAY,2024-09-10T06:40:26Z,005dM000004WE3FQAW,005dM000004WE3FQAW,2024-09-10T06:40:26Z,False,2024-09-10T06:40:26Z,2024-09-10T06:40:26Z,IN,India,19.0747999999999997555732988985255360603,72.8855999999999966121322358958423137665,Mumbai,400703,Maharashtra
04FdM000008f0PnUAI,2024-09-10T06:31:06Z,005dM000004WE3FQAW,005dM000004WE3FQAW,2024-09-10T06:31:06Z,False,2024-09-10T06:31:06Z,2024-09-10T06:31:06Z,IN,India,19.0747999999999997555732988985255360603,72.8855999999999966121322358958423137665,Mumbai,400703,Maharashtra
04FdM000008f8RlUAI,2024-09-10T06:37:34Z,005dM000004WE3FQAW,005dM000004WE3FQAW,2024-09-10T06:37:34Z,False,2024-09-10T06:37:34Z,2024-09-10T06:37:34Z,IN,India,19.0747999999999997555732988985255360603,72.8855999999999966121322358958423137665,Mumbai,400703,Maharashtra
04FdM000008fKONUA2,2024-09-10T08:20:46Z,005dM000004WE3FQAW,005dM000004WE3FQAW,2024-09-10T08:20:46Z,False,2024-09-10T08:20:46Z,2024-09-10T08:20:46Z,IN,India,19.0747999999999997555732988985255360603,72.8855999999999966121322358958423137665,Mumbai,400703,Maharashtra
04FdM000008fNJ9UAM,2024-09-10T08:20:42Z,005dM000004WE3FQAW,005dM000004WE3FQAW,2024-09-10T08:20:42Z,False,2024-09-10T08:20:42Z,2024-09-10T08:20:42Z,IN,India,19.0747999999999997555732988985255360603,72.8855999999999966121322358958423137665,Mumbai,400703,Maharashtra
04FdM000008fYXuUAM,2024-09-10T08:50:01Z,005dM000004WE3FQAW,005dM000004WE3FQAW,2024-09-10T08:50:01Z,False,2024-09-10T08:50:01Z,2024-09-10T08:50:01Z,IN,India,19.0747999999999997555732988985255360603,72.8855999999999966121322358958423137665,Mumbai,400070,Maharashtra
04FdM000008fYxEUAU,2024-09-10T08:14:15Z,005dM000004WE3FQAW,005dM000004WE3FQAW,2024-09-10T08:14:15Z,False,2024-09-10T08:14:15Z,2024-09-10T08:14:15Z,IN,India,19.0747999999999997555732988985255360603,72.8855999999999966121322358958423137665,Mumbai,400703,Maharashtra
04FdM000008fZ3fUAE,2024-09-10T08:14:11Z,005dM000004WE3FQAW,005dM000004WE3FQAW,2024-09-10T08:14:11Z,False,2024-09-10T08:14:11Z,2024-09-10T08:14:11Z,IN,India,19.0747999999999997555732988985255360603,72.8855999999999966121322358958423137665,Mumbai,400703,Maharashtra
04FdM000008fcK2UAI,2024-09-10T09:52:21Z,005dM000004WE3FQAW,005dM000004WE3FQAW,2024-09-10T09:52:21Z,False,2024-09-10T09:52:21Z,2024-09-10T09:52:21Z,IN,India,19.0747999999999997555732988985255360603,72.8855999999999966121322358958423137665,Mumbai,400703,Maharashtra
04FdM000008feH4UAI,2024-09-10T09:41:02Z,005dM000004WE3FQAW,005dM000004WE3FQAW,2024-09-10T09:41:02Z,False,2024-09-10T09:41:02Z,2024-09-10T09:41:02Z,IN,India,19.0747999999999997555732988985255360603,72.8855999999999966121322358958423137665,Mumbai,400070,Maharashtra
04FdM000008fhMsUAI,2024-09-10T09:40:54Z,005dM000004WE3FQAW,005dM000004WE3FQAW,2024-09-10T09:40:54Z,False,2024-09-10T09:40:54Z,2024-09-10T09:40:54Z,IN,India,19.0747999999999997555732988985255360603,72.8855999999999966121322358958423137665,Mumbai,400070,Maharashtra
04FdM000008fk0wUAA,2024-09-10T09:46:32Z,005dM000004WE3FQAW,005dM000004WE3FQAW,2024-09-10T09:46:32Z,False,2024-09-10T09:46:32Z,2024-09-10T09:46:32Z,IN,India,19.0747999999999997555732988985255360603,72.8855999999999966121322358958423137665,Mumbai,400703,Maharashtra
04FdM000008fmAxUAI,2024-09-10T09:46:59Z,005dM000004WE3FQAW,005dM000004WE3FQAW,2024-09-10T09:46:59Z,False,2024-09-10T09:46:59Z,2024-09-10T09:46:59Z,IN,India,19.0747999999999997555732988985255360603,72.8855999999999966121322358958423137665,Mumbai,400703,Maharashtra
04FdM000008fqXdUAI,2024-09-10T09:41:06Z,005dM000004WE3FQAW,005dM000004WE3FQAW,2024-09-10T09:41:06Z,False,2024-09-10T09:41:06Z,2024-09-10T09:41:06Z,IN,India,19.0747999999999997555732988985255360603,72.8855999999999966121322358958423137665,Mumbai,400703,Maharashtra
04FdM000008frS6UAI,2024-09-10T09:42:39Z,005dM000004WE3FQAW,005dM000004WE3FQAW,2024-09-10T09:42:39Z,False,2024-09-10T09:42:39Z,2024-09-10T09:42:39Z,IN,India,19.0747999999999997555732988985255360603,72.8855999999999966121322358958423137665,Mumbai,400703,Maharashtra
04FdM000008fs87UAA,2024-09-10T09:52:43Z,005dM000004WE3FQAW,005dM000004WE3FQAW,2024-09-10T09:52:43Z,False,2024-09-10T09:52:43Z,2024-09-10T09:52:43Z,TW,Taiwan,25.0503999999999997783106664428487420082,121.532399999999995543475961312651634216,Taipei,,Taipei City
04FdM000008fsMUUAY,2024-09-10T09:46:13Z,005dM000004WE3FQAW,005dM000004WE3FQAW,2024-09-10T09:46:13Z,False,2024-09-10T09:46:13Z,2024-09-10T09:46:13Z,IN,India,19.0747999999999997555732988985255360603,72.8855999999999966121322358958423137665,Mumbai,400703,Maharashtra
04FdM000008fv5xUAA,2024-09-10T10:14:12Z,005dM000004WE3FQAW,005dM000004WE3FQAW,2024-09-10T10:14:12Z,False,2024-09-10T10:14:12Z,2024-09-10T10:14:12Z,IN,India,19.0747999999999997555732988985255360603,72.8855999999999966121322358958423137665,Mumbai,400703,Maharashtra
04FdM000008g0KJUAY,2024-09-10T10:59:52Z,005dM000004WE3FQAW,005dM000004WE3FQAW,2024-09-10T10:59:52Z,False,2024-09-10T10:59:52Z,2024-09-10T10:59:52Z,IN,India,19.0747999999999997555732988985255360603,72.8855999999999966121322358958423137665,Mumbai,400703,Maharashtra
04FdM000008g0tuUAA,2024-09-10T11:00:14Z,005dM000004WE3FQAW,005dM000004WE3FQAW,2024-09-10T11:00:14Z,False,2024-09-10T11:00:14Z,2024-09-10T11:00:14Z,IN,India,19.0747999999999997555732988985255360603,72.8855999999999966121322358958423137665,Mumbai,400703,Maharashtra
04FdM000008g5DIUAY,2024-09-10T11:00:59Z,005dM000004WE3FQAW,005dM000004WE3FQAW,2024-09-10T11:00:59Z,False,2024-09-10T11:00:59Z,2024-09-10T11:00:59Z,IN,India,19.0747999999999997555732988985255360603,72.8855999999999966121322358958423137665,Mumbai,400703,Maharashtra
04FdM000008g5geUAA,2024-09-10T11:16:06Z,005dM000004WE3FQAW,005dM000004WE3FQAW,2024-09-10T11:16:06Z,False,2024-09-10T11:16:06Z,2024-09-10T11:16:06Z,IN,India,19.0747999999999997555732988985255360603,72.8855999999999966121322358958423137665,Mumbai,400070,Maharashtra
04FdM000008g682UAA,2024-09-10T11:37:50Z,005dM000004WE3FQAW,005dM000004WE3FQAW,2024-09-10T11:37:50Z,False,2024-09-10T11:37:50Z,2024-09-10T11:37:50Z,IN,India,19.0747999999999997555732988985255360603,72.8855999999999966121322358958423137665,Mumbai,400703,Maharashtra
04FdM000008gEZOUA2,2024-09-10T11:37:40Z,005dM000004WE3FQAW,005dM000004WE3FQAW,2024-09-10T11:37:40Z,False,2024-09-10T11:37:40Z,2024-09-10T11:37:40Z,IN,India,19.0747999999999997555732988985255360603,72.8855999999999966121322358958423137665,Mumbai,400703,Maharashtra
04FdM000008jABXUA2,2024-09-11T04:18:33Z,005dM000004WE3FQAW,005dM000004WE3FQAW,2024-09-11T04:18:33Z,False,2024-09-11T04:18:33Z,2024-09-11T04:18:33Z,IN,India,19.0747999999999997555732988985255360603,72.8855999999999966121322358958423137665,Mumbai,400070,Maharashtra
04FdM000008jFV7UAM,2024-09-11T05:21:02Z,005dM000004WE3FQAW,005dM000004WE3FQAW,2024-09-11T05:21:02Z,False,2024-09-11T05:21:02Z,2024-09-11T05:21:02Z,US,United States,38.893999999999998351540853036567568779,-77.0365000000000037516656448133289813995,Washington,56972,District of Columbia
04FdM000008k1uOUAQ,2024-09-11T08:52:11Z,005dM000004WE3FQAW,005dM000004WE3FQAW,2024-09-11T08:52:11Z,False,2024-09-11T08:52:11Z,2024-09-11T08:52:11Z,IN,India,19.0747999999999997555732988985255360603,72.8855999999999966121322358958423137665,Mumbai,400070,Maharashtra
04FdM000008mpuSUAQ,2024-09-12T04:09:02Z,005dM000004WE3FQAW,005dM000004WE3FQAW,2024-09-12T04:09:02Z,False,2024-09-12T04:09:02Z,2024-09-12T04:09:02Z,IN,India,19.0747999999999997555732988985255360603,72.8855999999999966121322358958423137665,Mumbai,400070,Maharashtra
04FdM000008n1ILUAY,2024-09-12T04:13:06Z,005dM000004WE3FQAW,005dM000004WE3FQAW,2024-09-12T04:13:06Z,False,2024-09-12T04:13:06Z,2024-09-12T04:13:06Z,IN,India,19.0747999999999997555732988985255360603,72.8855999999999966121322358958423137665,Mumbai,400703,Maharashtra
04FdM000008nXKdUAM,2024-09-12T09:15:45Z,005dM000004WE3FQAW,005dM000004WE3FQAW,2024-09-12T09:15:45Z,False,2024-09-12T09:15:45Z,2024-09-12T09:15:45Z,IN,India,19.0747999999999997555732988985255360603,72.8855999999999966121322358958423137665,Mumbai,400703,Maharashtra
04FdM000008nilgUAA,2024-09-12T08:51:18Z,005dM000004WE3FQAW,005dM000004WE3FQAW,2024-09-12T08:51:18Z,False,2024-09-12T08:51:18Z,2024-09-12T08:51:18Z,IN,India,19.0747999999999997555732988985255360603,72.8855999999999966121322358958423137665,Mumbai,400070,Maharashtra
04FdM000008npVRUAY,2024-09-12T09:32:41Z,005dM000004WE3FQAW,005dM000004WE3FQAW,2024-09-12T09:32:41Z,False,2024-09-12T09:32:41Z,2024-09-12T09:32:41Z,IN,India,19.0747999999999997555732988985255360603,72.8855999999999966121322358958423137665,Mumbai,400703,Maharashtra
04FdM000008ntDZUAY,2024-09-12T09:16:53Z,005dM000004WE3FQAW,005dM000004WE3FQAW,2024-09-12T09:16:53Z,False,2024-09-12T09:16:53Z,2024-09-12T09:16:53Z,IN,India,19.0747999999999997555732988985255360603,72.8855999999999966121322358958423137665,Mumbai,400703,Maharashtra
04FdM000008nu69UAA,2024-09-12T09:16:20Z,005dM000004WE3FQAW,005dM000004WE3FQAW,2024-09-12T09:16:20Z,False,2024-09-12T09:16:20Z,2024-09-12T09:16:20Z,IN,India,19.0747999999999997555732988985255360603,72.8855999999999966121322358958423137665,Mumbai,400703,Maharashtra
04FdM000008nyG9UAI,2024-09-12T09:37:57Z,005dM000004WE3FQAW,005dM000004WE3FQAW,2024-09-12T09:37:57Z,False,2024-09-12T09:37:57Z,2024-09-12T09:37:57Z,IN,India,19.0747999999999997555732988985255360603,72.8855999999999966121322358958423137665,Mumbai,400703,Maharashtra
04FdM000008oLTPUA2,2024-09-12T12:46:47Z,005dM000004WE3FQAW,005dM000004WE3FQAW,2024-09-12T12:46:47Z,False,2024-09-12T12:46:47Z,2024-09-12T12:46:47Z,IN,India,19.0747999999999997555732988985255360603,72.8855999999999966121322358958423137665,Mumbai,400703,Maharashtra
04FdM000008oOsYUAU,2024-09-12T13:01:39Z,005dM000004WE3FQAW,005dM000004WE3FQAW,2024-09-12T13:01:39Z,False,2024-09-12T13:01:39Z,2024-09-12T13:01:39Z,IN,India,19.0747999999999997555732988985255360603,72.8855999999999966121322358958423137665,Mumbai,400703,Maharashtra
04FdM000008oQ4aUAE,2024-09-12T13:01:00Z,005dM000004WE3FQAW,005dM000004WE3FQAW,2024-09-12T13:01:00Z,False,2024-09-12T13:01:00Z,2024-09-12T13:01:00Z,IN,India,19.0747999999999997555732988985255360603,72.8855999999999966121322358958423137665,Mumbai,400703,Maharashtra
04FdM000008oRHIUA2,2024-09-12T13:30:00Z,005dM000004WE3FQAW,005dM000004WE3FQAW,2024-09-12T13:30:00Z,False,2024-09-12T13:30:00Z,2024-09-12T13:30:00Z,IN,India,19.0747999999999997555732988985255360603,72.8855999999999966121322358958423137665,Mumbai,400703,Maharashtra
04FdM000008oSUaUAM,2024-09-12T13:01:10Z,005dM000004WE3FQAW,005dM000004WE3FQAW,2024-09-12T13:01:10Z,False,2024-09-12T13:01:10Z,2024-09-12T13:01:10Z,IN,India,19.0747999999999997555732988985255360603,72.8855999999999966121322358958423137665,Mumbai,400703,Maharashtra
04FdM000008oW1vUAE,2024-09-12T13:28:27Z,005dM000004WE3FQAW,005dM000004WE3FQAW,2024-09-12T13:28:27Z,False,2024-09-12T13:28:27Z,2024-09-12T13:28:27Z,IN,India,19.0747999999999997555732988985255360603,72.8855999999999966121322358958423137665,Mumbai,400703,Maharashtra
04FdM000008oWGbUAM,2024-09-12T13:30:46Z,005dM000004WE3FQAW,005dM000004WE3FQAW,2024-09-12T13:30:46Z,False,2024-09-12T13:30:46Z,2024-09-12T13:30:46Z,IN,India,19.0747999999999997555732988985255360603,72.8855999999999966121322358958423137665,Mumbai,400070,Maharashtra
04FdM000008oXFdUAM,2024-09-12T13:26:10Z,005dM000004WE3FQAW,005dM000004WE3FQAW,2024-09-12T13:26:10Z,False,2024-09-12T13:26:10Z,2024-09-12T13:26:10Z,IN,India,19.0747999999999997555732988985255360603,72.8855999999999966121322358958423137665,Mumbai,400703,Maharashtra
04FdM000008oYF1UAM,2024-09-12T13:28:57Z,005dM000004WE3FQAW,005dM000004WE3FQAW,2024-09-12T13:28:57Z,False,2024-09-12T13:28:57Z,2024-09-12T13:28:57Z,IN,India,19.0747999999999997555732988985255360603,72.8855999999999966121322358958423137665,Mumbai,400703,Maharashtra
04FdM000008r3DPUAY,2024-09-13T04:48:41Z,005dM000004WE3FQAW,005dM000004WE3FQAW,2024-09-13T04:48:41Z,False,2024-09-13T04:48:41Z,2024-09-13T04:48:41Z,IN,India,19.0747999999999997555732988985255360603,72.8855999999999966121322358958423137665,Mumbai,400070,Maharashtra
04FdM000008rHUqUAM,2024-09-13T06:22:05Z,005dM000004WE3FQAW,005dM000004WE3FQAW,2024-09-13T06:22:05Z,False,2024-09-13T06:22:05Z,2024-09-13T06:22:05Z,IN,India,19.0747999999999997555732988985255360603,72.8855999999999966121322358958423137665,Mumbai,400703,Maharashtra
04FdM000008rq2PUAQ,2024-09-13T09:25:38Z,005dM000004WE3FQAW,005dM000004WE3FQAW,2024-09-13T09:25:38Z,False,2024-09-13T09:25:38Z,2024-09-13T09:25:38Z,IN,India,19.0747999999999997555732988985255360603,72.8855999999999966121322358958423137665,Mumbai,400070,Maharashtra
04FdM000008rxPOUAY,2024-09-13T10:49:47Z,005dM000004WE3FQAW,005dM000004WE3FQAW,2024-09-13T10:49:47Z,False,2024-09-13T10:49:47Z,2024-09-13T10:49:47Z,IN,India,19.0747999999999997555732988985255360603,72.8855999999999966121322358958423137665,Mumbai,400703,Maharashtra
04FdM000008ry1fUAA,2024-09-13T10:37:59Z,005dM000004WE3FQAW,005dM000004WE3FQAW,2024-09-13T10:37:59Z,False,2024-09-13T10:37:59Z,2024-09-13T10:37:59Z,IN,India,19.0747999999999997555732988985255360603,72.8855999999999966121322358958423137665,Mumbai,400703,Maharashtra
04FdM000008zYMJUA2,2024-09-16T03:59:25Z,005dM000004WE3FQAW,005dM000004WE3FQAW,2024-09-16T03:59:25Z,False,2024-09-16T03:59:25Z,2024-09-16T03:59:25Z,IN,India,19.0747999999999997555732988985255360603,72.8855999999999966121322358958423137665,Mumbai,400703,Maharashtra
04FdM000008zwmTUAQ,2024-09-16T03:53:11Z,005dM000004WE3FQAW,005dM000004WE3FQAW,2024-09-16T03:53:11Z,False,2024-09-16T03:53:11Z,2024-09-16T03:53:11Z,IN,India,19.0747999999999997555732988985255360603,72.8855999999999966121322358958423137665,Mumbai,400070,Maharashtra
04FdM000008zxSjUAI,2024-09-16T04:33:15Z,005dM000004WE3FQAW,005dM000004WE3FQAW,2024-09-16T04:33:15Z,False,2024-09-16T04:33:15Z,2024-09-16T04:33:15Z,TW,Taiwan,25.0503999999999997783106664428487420082,121.532399999999995543475961312651634216,Taipei,,Taipei City
04FdM00000900MbUAI,2024-09-16T05:13:25Z,005dM000004WE3FQAW,005dM000004WE3FQAW,2024-09-16T05:13:25Z,False,2024-09-16T05:13:25Z,2024-09-16T05:13:25Z,US,United States,36.168500000000001648459146963432431221,-115.116399999999998726707417517900466919,Las Vegas,89101,Nevada
04FdM00000901L3UAI,2024-09-16T06:10:17Z,005dM000004WE3FQAW,005dM000004WE3FQAW,2024-09-16T06:10:17Z,False,2024-09-16T06:10:17Z,2024-09-16T06:10:17Z,US,United States,36.168500000000001648459146963432431221,-115.116399999999998726707417517900466919,Las Vegas,89101,Nevada
04FdM00000905dPUAQ,2024-09-16T06:14:38Z,005dM000004WE3FQAW,005dM000004WE3FQAW,2024-09-16T06:14:38Z,False,2024-09-16T06:14:38Z,2024-09-16T06:14:38Z,US,United States,36.168500000000001648459146963432431221,-115.116399999999998726707417517900466919,Las Vegas,89101,Nevada
04FdM0000090ECrUAM,2024-09-16T06:20:30Z,005dM000004WE3FQAW,005dM000004WE3FQAW,2024-09-16T06:20:30Z,False,2024-09-16T06:20:30Z,2024-09-16T06:20:30Z,US,United States,36.168500000000001648459146963432431221,-115.116399999999998726707417517900466919,Las Vegas,89101,Nevada
04FdM0000090fzfUAA,2024-09-16T09:49:28Z,005dM000004WE3FQAW,005dM000004WE3FQAW,2024-09-16T09:49:28Z,False,2024-09-16T09:49:28Z,2024-09-16T09:49:28Z,IN,India,19.0747999999999997555732988985255360603,72.8855999999999966121322358958423137665,Mumbai,400070,Maharashtra
04FdM0000090h6yUAA,2024-09-16T09:27:11Z,005dM000004WE3FQAW,005dM000004WE3FQAW,2024-09-16T09:27:11Z,False,2024-09-16T09:27:11Z,2024-09-16T09:27:11Z,IN,India,19.0747999999999997555732988985255360603,72.8855999999999966121322358958423137665,Mumbai,400703,Maharashtra
04FdM0000090jOyUAI,2024-09-16T09:27:13Z,005dM000004WE3FQAW,005dM000004WE3FQAW,2024-09-16T09:27:13Z,False,2024-09-16T09:27:13Z,2024-09-16T09:27:13Z,IN,India,19.0747999999999997555732988985255360603,72.8855999999999966121322358958423137665,Mumbai,400703,Maharashtra
04FdM0000090nn9UAA,2024-09-16T09:34:58Z,005dM000004WE3FQAW,005dM000004WE3FQAW,2024-09-16T09:34:58Z,False,2024-09-16T09:34:58Z,2024-09-16T09:34:58Z,IN,India,19.0747999999999997555732988985255360603,72.8855999999999966121322358958423137665,Mumbai,400703,Maharashtra
04FdM0000090ozNUAQ,2024-09-16T09:53:57Z,005dM000004WE3FQAW,005dM000004WE3FQAW,2024-09-16T09:53:57Z,False,2024-09-16T09:53:57Z,2024-09-16T09:53:57Z,US,United States,36.168500000000001648459146963432431221,-115.116399999999998726707417517900466919,Las Vegas,89101,Nevada
04FdM0000090pihUAA,2024-09-16T09:58:41Z,005dM000004WE3FQAW,005dM000004WE3FQAW,2024-09-16T09:58:41Z,False,2024-09-16T09:58:41Z,2024-09-16T09:58:41Z,US,United States,36.168500000000001648459146963432431221,-115.116399999999998726707417517900466919,Las Vegas,89101,Nevada
04FdM00000943AaUAI,2024-09-17T04:20:48Z,005dM000004WE3FQAW,005dM000004WE3FQAW,2024-09-17T04:20:48Z,False,2024-09-17T04:20:48Z,2024-09-17T04:20:48Z,IN,India,19.0747999999999997555732988985255360603,72.8855999999999966121322358958423137665,Mumbai,400070,Maharashtra
04FdM00000947JCUAY,2024-09-17T04:50:32Z,005dM000004WE3FQAW,005dM000004WE3FQAW,2024-09-17T04:50:32Z,False,2024-09-17T04:50:32Z,2024-09-17T04:50:32Z,US,United States,41.2590999999999965552888170350342988968,-95.8516999999999939063854981213808059692,Council Bluffs,51502,Iowa
04FdM0000094Bl6UAE,2024-09-17T05:29:02Z,005dM000004WE3FQAW,005dM000004WE3FQAW,2024-09-17T05:29:02Z,False,2024-09-17T05:29:02Z,2024-09-17T05:29:02Z,US,United States,41.2590999999999965552888170350342988968,-95.8516999999999939063854981213808059692,Council Bluffs,51502,Iowa
